{"type": "FeatureCollection", "name": "espacios_maritimos_chubut_norte", "features": [{"type": "Feature", "properties": {"capa": "limite_mar_territorial", "descripcion": "Limite exterior del Mar Territorial (12 mn) = limite jurisdiccion provincial/nacional", "fuente": "Servicio de Hidrografia Naval via IGN (WFS ign:linea_limite_maritimos, gid 33493)"}, "geometry": {"type": "LineString", "coordinates": [[-63.6, -42.989596], [-63.607459, -42.991943], [-63.620036, -42.99524], [-63.633511, -42.997878], [-63.636655, -42.999197], [-63.638451, -42.999856], [-63.651028, -43.003153], [-63.664502, -43.00579], [-63.677977, -43.008427], [-63.691452, -43.010405], [-63.693615, -43.010733], [-63.697351, -43.011301], [-63.704478, -43.012383], [-63.706367, -43.012475], [-63.717952, -43.013042], [-63.731427, -43.013701], [-63.7458, -43.013701], [-63.749393, -43.013701], [-63.756131, -43.013701], [-63.769605, -43.015679], [-63.774097, -43.016338], [-63.774995, -43.016338], [-63.78847, -43.018645], [-63.801945, -43.020622], [-63.81497, -43.0226], [-63.828445, -43.023259], [-63.832038, -43.023259], [-63.832937, -43.023259], [-63.835632, -43.023918], [-63.849106, -43.025895], [-63.862581, -43.026554], [-63.875607, -43.027213], [-63.881895, -43.027213], [-63.886386, -43.028531], [-63.899861, -43.031167], [-63.913336, -43.033803], [-63.926361, -43.03578], [-63.933548, -43.036439], [-63.936243, -43.037098], [-63.939836, -43.037757], [-63.944328, -43.039075], [-63.948819, -43.039734], [-63.950616, -43.040393], [-63.952413, -43.041711], [-63.963192, -43.046982], [-63.973972, -43.052911], [-63.984303, -43.059169], [-63.985004, -43.059512], [-63.995083, -43.064439], [-64.000472, -43.067073], [-64.010354, -43.072342], [-64.021134, -43.078928], [-64.031913, -43.084195], [-64.036405, -43.086171], [-64.038202, -43.087487], [-64.048532, -43.093413], [-64.059312, -43.099996], [-64.070092, -43.104933], [-64.071888, -43.105591], [-64.072787, -43.106249], [-64.075482, -43.108224], [-64.086262, -43.114147], [-64.097041, -43.120728], [-64.107372, -43.125992], [-64.11366, -43.128624], [-64.114558, -43.129282], [-64.116355, -43.130598], [-64.11905, -43.132572], [-64.121745, -43.134545], [-64.126237, -43.138493], [-64.136118, -43.1454], [-64.145999, -43.151977], [-64.156779, -43.158554], [-64.16711, -43.16513], [-64.178788, -43.17039], [-64.190466, -43.17565], [-64.202144, -43.18091], [-64.214721, -43.184854], [-64.219661, -43.186826], [-64.221458, -43.187154], [-64.229543, -43.192413], [-64.241221, -43.197671], [-64.245712, -43.199642], [-64.252899, -43.2049], [-64.254696, -43.206214], [-64.264577, -43.213442], [-64.274459, -43.220012], [-64.284789, -43.226581], [-64.295569, -43.232822], [-64.307247, -43.238076], [-64.318925, -43.24333], [-64.330603, -43.248583], [-64.342731, -43.252523], [-64.355307, -43.257119], [-64.368782, -43.260402], [-64.381358, -43.263028], [-64.388545, -43.264341], [-64.39124, -43.264998], [-64.40696, -43.270249], [-64.410553, -43.27189], [-64.413248, -43.272547], [-64.425825, -43.276485], [-64.438401, -43.281079], [-64.451427, -43.284361], [-64.464003, -43.286986], [-64.47119, -43.288298], [-64.481071, -43.292236], [-64.494546, -43.295517], [-64.507122, -43.298141], [-64.512063, -43.300109], [-64.525538, -43.30339], [-64.531826, -43.304702], [-64.545301, -43.307982], [-64.553385, -43.30995], [-64.55608, -43.310606], [-64.569106, -43.313886], [-64.578987, -43.315526], [-64.580784, -43.316182], [-64.593361, -43.320773], [-64.596954, -43.322085], [-64.59875, -43.322741], [-64.611327, -43.326676], [-64.623454, -43.331266], [-64.627047, -43.331922], [-64.629742, -43.333234], [-64.642319, -43.337168], [-64.654895, -43.341758], [-64.656692, -43.342413], [-64.661183, -43.345036], [-64.672861, -43.35028], [-64.684989, -43.355525], [-64.691277, -43.357163], [-64.702955, -43.362407], [-64.710141, -43.365684], [-64.711938, -43.366339], [-64.717328, -43.368961], [-64.729006, -43.374203], [-64.741133, -43.379446], [-64.743828, -43.380756], [-64.754608, -43.386653], [-64.758201, -43.388618], [-64.768981, -43.393859], [-64.768981, -43.395824], [-64.768981, -43.398445], [-64.770778, -43.407942], [-64.772574, -43.41842], [-64.776168, -43.428241], [-64.777964, -43.434133], [-64.780659, -43.438716], [-64.784252, -43.448206], [-64.787846, -43.458023], [-64.792337, -43.467838], [-64.796829, -43.476997], [-64.80177, -43.485828], [-64.808058, -43.494984], [-64.815244, -43.503485], [-64.822431, -43.512639], [-64.830516, -43.520484], [-64.839499, -43.528001], [-64.848482, -43.535844], [-64.85477, -43.540419], [-64.868694, -43.55218], [-64.875881, -43.55806], [-64.885762, -43.565246], [-64.89205, -43.569492], [-64.894745, -43.571451], [-64.898339, -43.574064], [-64.90822, -43.581247], [-64.915856, -43.586472], [-64.916754, -43.587125], [-64.922144, -43.594307], [-64.923042, -43.595613], [-64.924839, -43.598224], [-64.928432, -43.604752], [-64.93472, -43.612911], [-64.939212, -43.619438], [-64.942805, -43.625311], [-64.949093, -43.633794], [-64.95628, -43.642928], [-64.963466, -43.651408], [-64.971551, -43.659561], [-64.980085, -43.667386], [-64.989068, -43.675211], [-64.996255, -43.680427], [-64.996255, -43.682383], [-64.996255, -43.683687], [-64.997153, -43.693465], [-64.99895, -43.703567], [-64.999848, -43.708129], [-64.999848, -43.71269], [-65.000746, -43.722463], [-65.000746, -43.723766], [-65.001645, -43.73484], [-65.002543, -43.740377], [-65.00434, -43.750796], [-65.006136, -43.760563], [-65.00973, -43.770329], [-65.013323, -43.779767], [-65.017814, -43.789529], [-65.022306, -43.79929], [-65.024103, -43.803194], [-65.026798, -43.809049], [-65.03084, -43.818806], [-65.032637, -43.821733], [-65.033535, -43.823684], [-65.034433, -43.825635], [-65.035332, -43.826936], [-65.037128, -43.828887], [-65.03623, -43.829537], [-65.035332, -43.830838], [-65.026798, -43.836691], [-65.016916, -43.843843], [-65.007933, -43.851644], [-64.999848, -43.860095], [-64.991763, -43.868219], [-64.984577, -43.876667], [-64.978289, -43.885763], [-64.972, -43.894859], [-64.969755, -43.900055], [-64.96706, -43.904602], [-64.964365, -43.908174], [-64.96167, -43.912071], [-64.959873, -43.914668], [-64.958975, -43.915967], [-64.955382, -43.921162], [-64.949093, -43.930251], [-64.942805, -43.93934], [-64.937415, -43.948102], [-64.930229, -43.957188], [-64.925737, -43.965623], [-64.921246, -43.975355], [-64.919845, -43.979146], [-64.917652, -43.985085], [-64.914059, -43.994489], [-64.913161, -43.998704], [-64.912712, -43.999677], [-64.911813, -44.005512], [-64.909567, -44.015561], [-64.908669, -44.024961], [-64.907771, -44.035006], [-64.907771, -44.045699], [-64.908669, -44.055741], [-64.910466, -44.065134], [-64.912712, -44.075173], [-64.915407, -44.08521], [-64.919449, -44.095245], [-64.923491, -44.104632], [-64.928432, -44.114017], [-64.933373, -44.12243], [-64.936517, -44.127606], [-64.936517, -44.134723], [-64.937415, -44.14475], [-64.939661, -44.154129], [-64.941458, -44.164153], [-64.944602, -44.174175], [-64.944602, -44.179993], [-64.944602, -44.182902], [-64.9455, -44.190013], [-64.946398, -44.199384], [-64.947297, -44.2094], [-64.948644, -44.211985], [-64.949543, -44.214892], [-64.949543, -44.215861], [-64.950441, -44.225874], [-64.951339, -44.230719], [-64.951339, -44.232979], [-64.940559, -44.237823], [-64.92978, -44.244281], [-64.918551, -44.250738], [-64.907771, -44.257195], [-64.897889, -44.264296], [-64.888906, -44.271396], [-64.879923, -44.279464], [-64.87094, -44.287208], [-64.863753, -44.295919], [-64.856118, -44.304305], [-64.84983, -44.313013], [-64.84399, -44.322365], [-64.838151, -44.331715], [-64.834109, -44.340741], [-64.830067, -44.350733], [-64.826024, -44.360723], [-64.824228, -44.370067], [-64.821982, -44.380054], [-64.821083, -44.390039], [-64.820185, -44.400022], [-64.820185, -44.41097], [-64.821083, -44.42095], [-64.82288, -44.430928], [-64.825126, -44.439939], [-64.827821, -44.449913], [-64.831863, -44.460208], [-64.835906, -44.469214], [-64.840846, -44.478541], [-64.847135, -44.487866], [-64.852974, -44.497189], [-64.859711, -44.505547], [-64.866898, -44.514225], [-64.875881, -44.521938], [-64.883966, -44.529971], [-64.892949, -44.537681], [-64.90283, -44.544748], [-64.91361, -44.551815], [-64.923491, -44.558238], [-64.93472, -44.56466], [-64.946398, -44.57044], [-64.958526, -44.575576], [-64.970204, -44.580392], [-64.983229, -44.584565], [-64.996255, -44.588096], [-65.00928, -44.591947], [-65.01512, -44.597403], [-65.017618, -44.6]]}}, {"type": "Feature", "properties": {"capa": "lineas_de_base_rectas", "descripcion": "Tramos de linea de base recta (Ley 23.968, Anexo I)", "fuente": "Servicio de Hidrografia Naval via IGN (WFS ign:linea_limite_maritimos, entidad 3)"}, "geometry": {"type": "MultiLineString", "coordinates": [[[-64.101266, -42.882767], [-64.296667, -42.98]], [[-65.05, -43.341667], [-65.053333, -43.346667]], [[-65.261667, -43.586667], [-65.284405, -43.721849], [-65.303333, -43.795]], [[-65.228441, -43.972201], [-65.185598, -44.034332]], [[-65.218333, -44.136667], [-65.230248, -44.275848], [-65.227695, -44.332471]], [[-65.233333, -44.386667], [-65.283333, -44.495]], [[-65.316305, -44.533311], [-65.354184, -44.576501]], [[-65.354184, -44.576501], [-65.365013, -44.6]]]}}, {"type": "Feature", "properties": {"capa": "mar_territorial", "descripcion": "Poligono del Mar Territorial argentino (recorte)", "fuente": "Servicio de Hidrografia Naval via IGN (WFS ign:mar_territorial_argentino)"}, "geometry": {"type": "Polygon", "coordinates": [[[-65.361182, -44.584273], [-65.357493, -44.576192], [-65.356479, -44.573971], [-65.33961, -44.554838], [-65.325808, -44.539183], [-65.322463, -44.535389], [-65.317745, -44.530038], [-65.317416, -44.530329], [-65.317119, -44.530329], [-65.31697, -44.530864], [-65.316673, -44.530894], [-65.316524, -44.531162], [-65.316458, -44.53117], [-65.316286, -44.531191], [-65.31587, -44.531013], [-65.315423, -44.530924], [-65.315394, -44.530596], [-65.315661, -44.530477], [-65.31581, -44.529972], [-65.316048, -44.529645], [-65.316018, -44.52905], [-65.315751, -44.528574], [-65.315751, -44.528158], [-65.316226, -44.528455], [-65.316554, -44.528514], [-65.316494, -44.527979], [-65.316673, -44.527533], [-65.316821, -44.527176], [-65.317297, -44.52673], [-65.317178, -44.526313], [-65.316583, -44.526492], [-65.315959, -44.526581], [-65.315661, -44.526343], [-65.315551, -44.526316], [-65.315304, -44.526254], [-65.315221, -44.526087], [-65.315126, -44.525897], [-65.315096, -44.525391], [-65.315245, -44.525124], [-65.314769, -44.524648], [-65.314501, -44.524618], [-65.313936, -44.524529], [-65.313616, -44.524674], [-65.313609, -44.524678], [-65.313371, -44.524737], [-65.313448, -44.524469], [-65.31349, -44.524321], [-65.31349, -44.524112], [-65.313341, -44.523815], [-65.313103, -44.523845], [-65.312746, -44.523845], [-65.312538, -44.523607], [-65.312628, -44.523131], [-65.31233, -44.522863], [-65.312122, -44.522714], [-65.311768, -44.52262], [-65.311676, -44.522596], [-65.311676, -44.522209], [-65.311884, -44.521733], [-65.311943, -44.521346], [-65.311676, -44.521138], [-65.311378, -44.52096], [-65.311051, -44.520454], [-65.311051, -44.519829], [-65.311319, -44.51974], [-65.311616, -44.519472], [-65.312033, -44.519235], [-65.31233, -44.519175], [-65.312568, -44.518729], [-65.312598, -44.518312], [-65.312152, -44.518194], [-65.312181, -44.517896], [-65.312746, -44.517747], [-65.312895, -44.51745], [-65.313014, -44.517004], [-65.313282, -44.516647], [-65.313133, -44.51626], [-65.312717, -44.516171], [-65.31233, -44.516111], [-65.312003, -44.516111], [-65.311748, -44.516048], [-65.311408, -44.515963], [-65.311289, -44.515755], [-65.31114, -44.515546], [-65.310992, -44.515576], [-65.310783, -44.515636], [-65.310545, -44.515814], [-65.310099, -44.515844], [-65.309713, -44.515784], [-65.309237, -44.515784], [-65.308701, -44.515517], [-65.308701, -44.515308], [-65.308725, -44.515165], [-65.308761, -44.514952], [-65.309088, -44.514922], [-65.309504, -44.514892], [-65.309623, -44.514416], [-65.309296, -44.514327], [-65.308939, -44.514119], [-65.308969, -44.51394], [-65.30885, -44.513554], [-65.308434, -44.513316], [-65.308196, -44.513137], [-65.307988, -44.512929], [-65.307452, -44.512929], [-65.307307, -44.512994], [-65.307184, -44.513048], [-65.306619, -44.513226], [-65.306352, -44.513821], [-65.30653, -44.514386], [-65.3065, -44.514714], [-65.306262, -44.514595], [-65.306114, -44.514862], [-65.306262, -44.514981], [-65.306025, -44.515338], [-65.305697, -44.515279], [-65.305251, -44.515189], [-65.304835, -44.515041], [-65.304805, -44.515457], [-65.304775, -44.515755], [-65.304508, -44.515874], [-65.304299, -44.515755], [-65.304002, -44.515695], [-65.304002, -44.51629], [-65.303764, -44.516409], [-65.303437, -44.516409], [-65.303229, -44.516141], [-65.30302, -44.515784], [-65.302991, -44.515368], [-65.302991, -44.515011], [-65.303139, -44.514743], [-65.303348, -44.514416], [-65.303705, -44.514297], [-65.303913, -44.514059], [-65.304032, -44.513613], [-65.303942, -44.513226], [-65.303705, -44.51281], [-65.303437, -44.512572], [-65.30311, -44.512513], [-65.302604, -44.512423], [-65.302372, -44.512398], [-65.302336, -44.512394], [-65.30189, -44.512364], [-65.301563, -44.512007], [-65.301496, -44.511889], [-65.301444, -44.511799], [-65.301385, -44.511531], [-65.301147, -44.511323], [-65.301147, -44.511055], [-65.301236, -44.510787], [-65.301206, -44.510401], [-65.30079, -44.510193], [-65.300373, -44.510341], [-65.300016, -44.510163], [-65.299838, -44.509925], [-65.299492, -44.50998], [-65.299094, -44.510044], [-65.298767, -44.510103], [-65.298559, -44.510341], [-65.298291, -44.510103], [-65.297994, -44.510193], [-65.297786, -44.510371], [-65.297429, -44.51052], [-65.297072, -44.510431], [-65.296507, -44.510341], [-65.29609, -44.51046], [-65.295744, -44.510828], [-65.295614, -44.510966], [-65.295768, -44.511358], [-65.295882, -44.51165], [-65.2959, -44.511815], [-65.295912, -44.511918], [-65.295555, -44.512394], [-65.295406, -44.512632], [-65.295525, -44.513197], [-65.295704, -44.513524], [-65.29609, -44.513583], [-65.296495, -44.513474], [-65.296864, -44.513375], [-65.297012, -44.513583], [-65.296298, -44.513792], [-65.29615, -44.514297], [-65.29612, -44.514565], [-65.295852, -44.514654], [-65.295704, -44.514833], [-65.295882, -44.51507], [-65.295763, -44.515398], [-65.295495, -44.515398], [-65.295317, -44.515576], [-65.295079, -44.515427], [-65.295021, -44.515436], [-65.294692, -44.515487], [-65.294395, -44.51629], [-65.294216, -44.516736], [-65.293926, -44.516937], [-65.29383, -44.517004], [-65.293354, -44.517301], [-65.293205, -44.517242], [-65.29326, -44.517104], [-65.293503, -44.516498], [-65.2938, -44.515963], [-65.294216, -44.515457], [-65.294692, -44.51507], [-65.294692, -44.514535], [-65.294335, -44.514654], [-65.294038, -44.514446], [-65.293711, -44.514416], [-65.293503, -44.514446], [-65.292997, -44.514446], [-65.292932, -44.514511], [-65.29264, -44.514803], [-65.292253, -44.514743], [-65.292283, -44.514624], [-65.292521, -44.514119], [-65.292134, -44.514238], [-65.292016, -44.514167], [-65.291986, -44.514148], [-65.291867, -44.513881], [-65.291748, -44.514089], [-65.29168, -44.514247], [-65.291569, -44.514505], [-65.291361, -44.514624], [-65.291272, -44.514595], [-65.291034, -44.514446], [-65.290945, -44.514654], [-65.290766, -44.5151], [-65.29038, -44.515427], [-65.290201, -44.515279], [-65.290112, -44.51513], [-65.289904, -44.514743], [-65.289814, -44.514654], [-65.289716, -44.51458], [-65.289576, -44.514476], [-65.289528, -44.514598], [-65.289517, -44.514624], [-65.289695, -44.51507], [-65.289606, -44.515338], [-65.289487, -44.515457], [-65.28922, -44.515398], [-65.288922, -44.5151], [-65.288863, -44.514981], [-65.288654, -44.514803], [-65.288644, -44.514679], [-65.288625, -44.514446], [-65.288471, -44.514695], [-65.288387, -44.514833], [-65.288357, -44.51513], [-65.288149, -44.51513], [-65.28797, -44.514981], [-65.28797, -44.514773], [-65.287871, -44.514555], [-65.287822, -44.514446], [-65.287673, -44.514446], [-65.287628, -44.514497], [-65.287465, -44.514684], [-65.287316, -44.514505], [-65.287308, -44.514448], [-65.287257, -44.514059], [-65.287286, -44.513613], [-65.287346, -44.513197], [-65.287078, -44.513137], [-65.286662, -44.513256], [-65.286513, -44.513524], [-65.286394, -44.514], [-65.286067, -44.514297], [-65.286148, -44.514483], [-65.286275, -44.514773], [-65.285948, -44.515338], [-65.286037, -44.515576], [-65.286394, -44.515874], [-65.286334, -44.516201], [-65.285531, -44.516409], [-65.285055, -44.516409], [-65.28449, -44.516736], [-65.284104, -44.516647], [-65.284133, -44.516379], [-65.284077, -44.516309], [-65.284014, -44.51623], [-65.28371, -44.516427], [-65.283509, -44.516558], [-65.283092, -44.516706], [-65.282765, -44.516558], [-65.282646, -44.51632], [-65.282656, -44.516307], [-65.282825, -44.516082], [-65.282795, -44.515755], [-65.2822, -44.516111], [-65.282129, -44.516194], [-65.282022, -44.51632], [-65.281932, -44.516677], [-65.282289, -44.516974], [-65.282438, -44.51739], [-65.28217, -44.517509], [-65.281813, -44.517658], [-65.281576, -44.517509], [-65.281248, -44.517599], [-65.281189, -44.517926], [-65.28107, -44.518104], [-65.280743, -44.517956], [-65.280475, -44.517866], [-65.280326, -44.517509], [-65.280118, -44.517509], [-65.27985, -44.517688], [-65.279553, -44.517539], [-65.279479, -44.517506], [-65.279285, -44.51742], [-65.279137, -44.517271], [-65.279315, -44.517034], [-65.279226, -44.516677], [-65.279375, -44.516409], [-65.279612, -44.51623], [-65.27991, -44.515993], [-65.280178, -44.515755], [-65.280445, -44.515427], [-65.280862, -44.515219], [-65.280743, -44.51507], [-65.280416, -44.51507], [-65.280445, -44.514833], [-65.280475, -44.514595], [-65.280207, -44.514476], [-65.27991, -44.514714], [-65.27994, -44.514327], [-65.280118, -44.513851], [-65.280237, -44.513375], [-65.280029, -44.513286], [-65.279821, -44.513256], [-65.27994, -44.51281], [-65.279791, -44.512483], [-65.279642, -44.512542], [-65.279107, -44.512691], [-65.279018, -44.512513], [-65.27875, -44.512542], [-65.278602, -44.51272], [-65.278601, -44.512721], [-65.278363, -44.51281], [-65.278274, -44.512542], [-65.278185, -44.512215], [-65.278185, -44.512007], [-65.278334, -44.511769], [-65.278715, -44.511742], [-65.27875, -44.511739], [-65.279315, -44.511918], [-65.27994, -44.512066], [-65.280683, -44.511947], [-65.281129, -44.511947], [-65.281546, -44.511888], [-65.281665, -44.51168], [-65.281695, -44.511323], [-65.28226, -44.510847], [-65.283033, -44.510639], [-65.283509, -44.510401], [-65.283658, -44.510014], [-65.283737, -44.509999], [-65.28388, -44.510118], [-65.28426, -44.510237], [-65.284498, -44.51007], [-65.28495, -44.510237], [-65.285426, -44.510189], [-65.285878, -44.509904], [-65.28633, -44.509927], [-65.286545, -44.510094], [-65.286662, -44.510371], [-65.287197, -44.510193], [-65.287068, -44.510046], [-65.287139, -44.509832], [-65.287401, -44.509785], [-65.287709, -44.50992], [-65.28797, -44.509865], [-65.288044, -44.50957], [-65.288044, -44.509237], [-65.288329, -44.509285], [-65.288736, -44.509089], [-65.288892, -44.508943], [-65.288863, -44.508438], [-65.288803, -44.508289], [-65.288476, -44.507962], [-65.288773, -44.507516], [-65.288416, -44.507337], [-65.287732, -44.507367], [-65.287555, -44.50743], [-65.287316, -44.507516], [-65.287197, -44.507337], [-65.286959, -44.507218], [-65.287064, -44.507073], [-65.287346, -44.506683], [-65.287465, -44.506266], [-65.287197, -44.505939], [-65.28684, -44.505731], [-65.287138, -44.505701], [-65.287703, -44.505523], [-65.287851, -44.505077], [-65.288179, -44.50475], [-65.288506, -44.504482], [-65.289398, -44.504482], [-65.289844, -44.504214], [-65.290142, -44.503887], [-65.290588, -44.503649], [-65.290707, -44.503352], [-65.290677, -44.503143], [-65.290469, -44.502905], [-65.289785, -44.502757], [-65.289534, -44.502848], [-65.289458, -44.502876], [-65.28913, -44.502876], [-65.288952, -44.502668], [-65.289187, -44.502485], [-65.289487, -44.502251], [-65.289487, -44.502043], [-65.28922, -44.501805], [-65.289606, -44.501656], [-65.28916, -44.501329], [-65.288535, -44.501299], [-65.288416, -44.501032], [-65.288595, -44.500526], [-65.288565, -44.500139], [-65.28797, -44.50002], [-65.287658, -44.499931], [-65.287346, -44.499842], [-65.286751, -44.499574], [-65.286721, -44.499396], [-65.286215, -44.499217], [-65.28568, -44.499455], [-65.285472, -44.499396], [-65.285323, -44.499307], [-65.285323, -44.499069], [-65.285417, -44.498882], [-65.285472, -44.498771], [-65.28565, -44.498563], [-65.285859, -44.498414], [-65.286156, -44.498325], [-65.285978, -44.498057], [-65.285621, -44.497879], [-65.285353, -44.497819], [-65.285026, -44.4977], [-65.284728, -44.497462], [-65.284401, -44.497165], [-65.284239, -44.496949], [-65.284223, -44.496927], [-65.284224, -44.496917], [-65.284282, -44.49654], [-65.28449, -44.496213], [-65.284818, -44.495916], [-65.284877, -44.49541], [-65.284699, -44.495261], [-65.284014, -44.495113], [-65.284223, -44.494905], [-65.284193, -44.494369], [-65.284193, -44.494131], [-65.284282, -44.493804], [-65.284877, -44.493596], [-65.285092, -44.493381], [-65.283201, -44.489264], [-65.281307, -44.485138], [-65.269639, -44.459728], [-65.262776, -44.444782], [-65.262572, -44.444337], [-65.248222, -44.413086], [-65.244899, -44.405849], [-65.236187, -44.386877], [-65.235979, -44.386669], [-65.23592, -44.386609], [-65.235979, -44.386252], [-65.236068, -44.385806], [-65.23586, -44.385449], [-65.235444, -44.385301], [-65.235057, -44.385152], [-65.234641, -44.385271], [-65.234135, -44.385539], [-65.233808, -44.385479], [-65.233659, -44.38539], [-65.2336, -44.384854], [-65.233481, -44.384438], [-65.233689, -44.384081], [-65.233927, -44.383813], [-65.233778, -44.383605], [-65.234105, -44.383308], [-65.233808, -44.382772], [-65.233362, -44.382743], [-65.233064, -44.382564], [-65.233035, -44.382445], [-65.23354, -44.382178], [-65.233808, -44.381702], [-65.2336, -44.381077], [-65.233332, -44.380869], [-65.233035, -44.380631], [-65.233302, -44.380215], [-65.233124, -44.379768], [-65.233154, -44.378995], [-65.232856, -44.37843], [-65.232559, -44.378103], [-65.232559, -44.377716], [-65.232945, -44.377359], [-65.233421, -44.376556], [-65.23357, -44.375426], [-65.233213, -44.373939], [-65.232767, -44.372838], [-65.232231, -44.371797], [-65.231518, -44.370935], [-65.230477, -44.37028], [-65.229793, -44.369834], [-65.228989, -44.369537], [-65.228127, -44.369447], [-65.227175, -44.369388], [-65.226313, -44.369507], [-65.225747, -44.369596], [-65.225664, -44.369804], [-65.225628, -44.369894], [-65.225572, -44.369773], [-65.22542, -44.369447], [-65.224677, -44.368853], [-65.223993, -44.368674], [-65.223071, -44.368496], [-65.221554, -44.368674], [-65.22081, -44.368912], [-65.220245, -44.369239], [-65.219769, -44.369091], [-65.219382, -44.369388], [-65.218877, -44.369447], [-65.218371, -44.368674], [-65.217984, -44.367812], [-65.216735, -44.366741], [-65.216676, -44.366324], [-65.21733, -44.366324], [-65.217747, -44.365849], [-65.217806, -44.365254], [-65.218193, -44.364629], [-65.218609, -44.364361], [-65.21962, -44.364094], [-65.220632, -44.364004], [-65.221613, -44.363975], [-65.222059, -44.363766], [-65.222476, -44.36338], [-65.222565, -44.362785], [-65.223041, -44.362517], [-65.223249, -44.361922], [-65.223219, -44.361357], [-65.223368, -44.360971], [-65.223695, -44.360703], [-65.223874, -44.360287], [-65.223814, -44.359721], [-65.223784, -44.359335], [-65.223338, -44.358651], [-65.222981, -44.357996], [-65.222535, -44.35761], [-65.222178, -44.357134], [-65.221792, -44.356479], [-65.221673, -44.355974], [-65.222297, -44.355319], [-65.222803, -44.354814], [-65.223487, -44.354011], [-65.223517, -44.353178], [-65.223457, -44.352702], [-65.223636, -44.352643], [-65.223963, -44.352167], [-65.223963, -44.351869], [-65.224082, -44.351274], [-65.22426, -44.350769], [-65.224587, -44.350531], [-65.225004, -44.350501], [-65.225331, -44.350412], [-65.225658, -44.350204], [-65.225956, -44.349519], [-65.226283, -44.348657], [-65.226194, -44.347824], [-65.226045, -44.34711], [-65.225777, -44.346515], [-65.225331, -44.346099], [-65.224885, -44.345207], [-65.224231, -44.344701], [-65.223874, -44.344195], [-65.223636, -44.343779], [-65.223755, -44.343154], [-65.224439, -44.342262], [-65.224944, -44.341548], [-65.225509, -44.340745], [-65.225628, -44.340031], [-65.225123, -44.339615], [-65.224558, -44.339169], [-65.224112, -44.33899], [-65.223844, -44.338395], [-65.223874, -44.337949], [-65.224528, -44.337325], [-65.224706, -44.336998], [-65.225123, -44.336551], [-65.226015, -44.335689], [-65.22664, -44.334945], [-65.227413, -44.334112], [-65.2276, -44.334101], [-65.231164, -44.279141], [-65.230965, -44.276795], [-65.230637, -44.276592], [-65.230377, -44.276352], [-65.23027, -44.276188], [-65.230248, -44.275848], [-65.230507, -44.27544], [-65.230728, -44.275238], [-65.230828, -44.275176], [-65.229574, -44.260419], [-65.22569, -44.214678], [-65.223919, -44.193829], [-65.221759, -44.168394], [-65.219037, -44.136341], [-65.220807, -44.136191], [-65.220859, -44.136162], [-65.221125, -44.135876], [-65.221278, -44.135571], [-65.221373, -44.13521], [-65.22143, -44.134962], [-65.221468, -44.134753], [-65.22124, -44.134505], [-65.221068, -44.134296], [-65.220859, -44.134182], [-65.220668, -44.134087], [-65.220668, -44.133896], [-65.220155, -44.133801], [-65.219888, -44.133801], [-65.219755, -44.133858], [-65.219488, -44.133611], [-65.219031, -44.133535], [-65.218784, -44.133192], [-65.218594, -44.132887], [-65.218822, -44.132583], [-65.219089, -44.132469], [-65.219355, -44.132259], [-65.219298, -44.132069], [-65.219717, -44.131555], [-65.220155, -44.131117], [-65.220288, -44.130546], [-65.220288, -44.130013], [-65.220364, -44.129594], [-65.220021, -44.12948], [-65.219622, -44.129499], [-65.21945, -44.129366], [-65.219203, -44.129118], [-65.21926, -44.128909], [-65.219374, -44.128604], [-65.219127, -44.128452], [-65.218765, -44.128566], [-65.218422, -44.128585], [-65.218156, -44.128509], [-65.217794, -44.128433], [-65.217528, -44.128547], [-65.217522, -44.12855], [-65.217375, -44.128623], [-65.217299, -44.128852], [-65.217033, -44.128757], [-65.216671, -44.1287], [-65.216385, -44.128642], [-65.216404, -44.128471], [-65.216671, -44.128338], [-65.217185, -44.128452], [-65.21726, -44.128214], [-65.217299, -44.12809], [-65.217318, -44.1279], [-65.217375, -44.12771], [-65.217965, -44.127386], [-65.217984, -44.127177], [-65.218156, -44.126739], [-65.218003, -44.126453], [-65.217756, -44.126225], [-65.217394, -44.126225], [-65.217071, -44.126453], [-65.21669, -44.126549], [-65.216481, -44.126491], [-65.216576, -44.126301], [-65.21688, -44.125996], [-65.21709, -44.125692], [-65.216861, -44.12554], [-65.216538, -44.125578], [-65.216328, -44.125749], [-65.215948, -44.125768], [-65.216366, -44.125349], [-65.217223, -44.125235], [-65.217927, -44.12514], [-65.218118, -44.12493], [-65.218061, -44.124645], [-65.217813, -44.124455], [-65.218327, -44.124226], [-65.218784, -44.124169], [-65.218955, -44.123884], [-65.218936, -44.123636], [-65.219336, -44.123674], [-65.219374, -44.123465], [-65.219336, -44.123331], [-65.219222, -44.123084], [-65.219089, -44.123065], [-65.218689, -44.123103], [-65.218175, -44.12337], [-65.218042, -44.123122], [-65.218517, -44.122875], [-65.218384, -44.122665], [-65.218232, -44.122456], [-65.219108, -44.122285], [-65.219717, -44.121885], [-65.220097, -44.122094], [-65.220383, -44.122437], [-65.22084, -44.12257], [-65.221144, -44.122494], [-65.221754, -44.122437], [-65.222248, -44.122361], [-65.222667, -44.122113], [-65.222896, -44.121904], [-65.223124, -44.12158], [-65.22341, -44.121637], [-65.223905, -44.121504], [-65.224304, -44.121428], [-65.224647, -44.121618], [-65.224971, -44.121961], [-65.225618, -44.122208], [-65.225903, -44.122418], [-65.226227, -44.12276], [-65.226798, -44.122932], [-65.227007, -44.122285], [-65.227179, -44.122056], [-65.227103, -44.121694], [-65.22695, -44.121352], [-65.22695, -44.120876], [-65.227084, -44.120666], [-65.227655, -44.120495], [-65.228092, -44.120533], [-65.228759, -44.120571], [-65.229482, -44.120286], [-65.230339, -44.119734], [-65.230929, -44.119486], [-65.231481, -44.119296], [-65.23238, -44.118939], [-65.232737, -44.118118], [-65.233058, -44.117547], [-65.233594, -44.116797], [-65.233844, -44.116298], [-65.233665, -44.115727], [-65.233201, -44.115263], [-65.23263, -44.115156], [-65.231916, -44.115013], [-65.231452, -44.114906], [-65.231488, -44.114478], [-65.231559, -44.113835], [-65.231916, -44.113264], [-65.232237, -44.112586], [-65.233451, -44.1123], [-65.234165, -44.111836], [-65.234415, -44.111301], [-65.234557, -44.110873], [-65.234736, -44.110194], [-65.234986, -44.109766], [-65.235771, -44.109552], [-65.236413, -44.109052], [-65.236699, -44.108731], [-65.236806, -44.107875], [-65.23677, -44.107232], [-65.236663, -44.106839], [-65.236271, -44.106411], [-65.236271, -44.10559], [-65.236128, -44.105055], [-65.235985, -44.104627], [-65.235521, -44.104305], [-65.235592, -44.103841], [-65.235557, -44.103377], [-65.235128, -44.102521], [-65.235271, -44.102164], [-65.2357, -44.1017], [-65.236485, -44.100986], [-65.236663, -44.100165], [-65.236199, -44.099523], [-65.235236, -44.099094], [-65.234772, -44.098702], [-65.234236, -44.097417], [-65.234093, -44.096667], [-65.234522, -44.096096], [-65.235307, -44.095846], [-65.236306, -44.095632], [-65.238305, -44.094383], [-65.239697, -44.092741], [-65.240518, -44.091099], [-65.241624, -44.088315], [-65.242017, -44.085817], [-65.242053, -44.082997], [-65.241767, -44.08032], [-65.241125, -44.077822], [-65.240625, -44.076858], [-65.240125, -44.075573], [-65.239483, -44.074752], [-65.237912, -44.072147], [-65.237448, -44.071148], [-65.237234, -44.070362], [-65.236628, -44.069292], [-65.235949, -44.068471], [-65.234593, -44.067471], [-65.233629, -44.066829], [-65.232487, -44.065936], [-65.231452, -44.065544], [-65.230274, -44.064794], [-65.228633, -44.063474], [-65.227241, -44.062938], [-65.225813, -44.062724], [-65.223993, -44.062153], [-65.223529, -44.061832], [-65.222351, -44.061011], [-65.220994, -44.05994], [-65.22053, -44.059548], [-65.219852, -44.059191], [-65.219495, -44.059119], [-65.218639, -44.058834], [-65.218246, -44.058334], [-65.217604, -44.057763], [-65.217747, -44.056906], [-65.218185, -44.05644], [-65.218318, -44.0563], [-65.219174, -44.05605], [-65.219424, -44.055229], [-65.219495, -44.054087], [-65.21921, -44.052588], [-65.21896, -44.051624], [-65.218532, -44.050875], [-65.218246, -44.050339], [-65.218068, -44.049982], [-65.21689, -44.04934], [-65.216462, -44.04884], [-65.215427, -44.048162], [-65.214784, -44.047983], [-65.213892, -44.047805], [-65.213571, -44.047805], [-65.212785, -44.047841], [-65.212071, -44.047769], [-65.210679, -44.047198], [-65.209609, -44.046913], [-65.208752, -44.046449], [-65.208038, -44.046056], [-65.207217, -44.045449], [-65.207896, -44.045592], [-65.208145, -44.045307], [-65.20786, -44.044914], [-65.207467, -44.044807], [-65.207432, -44.044557], [-65.208003, -44.044521], [-65.207824, -44.044093], [-65.207432, -44.043986], [-65.207717, -44.043772], [-65.208252, -44.043665], [-65.208681, -44.043629], [-65.209145, -44.043308], [-65.209216, -44.042701], [-65.209537, -44.042094], [-65.209359, -44.041488], [-65.208681, -44.041059], [-65.20786, -44.040774], [-65.20711, -44.040702], [-65.206147, -44.040702], [-65.205683, -44.040631], [-65.205112, -44.040809], [-65.204497, -44.041102], [-65.204362, -44.041166], [-65.203613, -44.04138], [-65.203209, -44.041229], [-65.203041, -44.041166], [-65.202563, -44.041317], [-65.202363, -44.04138], [-65.202297, -44.041354], [-65.202006, -44.041238], [-65.201471, -44.041273], [-65.200864, -44.041488], [-65.200507, -44.041345], [-65.200008, -44.041131], [-65.199579, -44.041273], [-65.199401, -44.041166], [-65.199044, -44.040881], [-65.198473, -44.040845], [-65.198366, -44.040952], [-65.19808, -44.041202], [-65.197581, -44.040988], [-65.197188, -44.040988], [-65.19651, -44.041024], [-65.196046, -44.040845], [-65.195867, -44.040488], [-65.195225, -44.040488], [-65.194939, -44.040381], [-65.195261, -44.039881], [-65.195082, -44.038953], [-65.193904, -44.038704], [-65.193405, -44.038632], [-65.192603, -44.038365], [-65.192441, -44.038311], [-65.192441, -44.037776], [-65.191977, -44.037633], [-65.191374, -44.038002], [-65.191334, -44.038025], [-65.190656, -44.038168], [-65.190335, -44.037954], [-65.190068, -44.037895], [-65.189709, -44.037815], [-65.189693, -44.037811], [-65.189692, -44.037807], [-65.189673, -44.03773], [-65.188257, -44.036625], [-65.18535, -44.034358], [-65.193479, -44.023934], [-65.203237, -44.011421], [-65.22054, -43.989232], [-65.229477, -43.97777], [-65.232606, -43.973757], [-65.232606, -43.973699], [-65.232594, -43.973628], [-65.232571, -43.973485], [-65.232428, -43.973199], [-65.232463, -43.973057], [-65.232214, -43.972807], [-65.231321, -43.973306], [-65.230929, -43.973414], [-65.231143, -43.9727], [-65.231678, -43.972022], [-65.232294, -43.97149], [-65.232463, -43.971343], [-65.233284, -43.970986], [-65.233855, -43.970844], [-65.234391, -43.970523], [-65.235355, -43.970772], [-65.235926, -43.971094], [-65.236247, -43.971058], [-65.236711, -43.971379], [-65.237532, -43.971807], [-65.238388, -43.971843], [-65.239709, -43.9717], [-65.240744, -43.971058], [-65.241494, -43.970415], [-65.242636, -43.969416], [-65.243778, -43.969023], [-65.24417, -43.969131], [-65.244813, -43.969559], [-65.245562, -43.969595], [-65.246276, -43.969559], [-65.247204, -43.969238], [-65.248596, -43.968845], [-65.248953, -43.968881], [-65.249132, -43.969702], [-65.249953, -43.970344], [-65.25088, -43.970844], [-65.251344, -43.971094], [-65.252594, -43.971629], [-65.253843, -43.971593], [-65.254628, -43.971486], [-65.255984, -43.970594], [-65.256841, -43.969844], [-65.258483, -43.969416], [-65.260267, -43.968881], [-65.261481, -43.968524], [-65.261909, -43.968131], [-65.262338, -43.96831], [-65.26298, -43.968167], [-65.263159, -43.967596], [-65.263373, -43.967596], [-65.263765, -43.967096], [-65.264158, -43.967167], [-65.26555, -43.967953], [-65.266157, -43.968167], [-65.266799, -43.968702], [-65.267727, -43.96938], [-65.269476, -43.969809], [-65.271332, -43.96938], [-65.272331, -43.968952], [-65.273438, -43.968417], [-65.274901, -43.967382], [-65.275865, -43.966739], [-65.276829, -43.966632], [-65.277293, -43.965954], [-65.278149, -43.965133], [-65.27872, -43.964812], [-65.280433, -43.964134], [-65.28154, -43.963277], [-65.282611, -43.962385], [-65.283075, -43.962064], [-65.283075, -43.960707], [-65.283182, -43.96035], [-65.283146, -43.959744], [-65.283931, -43.95853], [-65.284343, -43.957951], [-65.285214, -43.956727], [-65.285252, -43.956674], [-65.285329, -43.956591], [-65.286251, -43.955603], [-65.286715, -43.954854], [-65.286738, -43.954708], [-65.286822, -43.954176], [-65.286822, -43.953462], [-65.287179, -43.952534], [-65.287857, -43.951427], [-65.288535, -43.950285], [-65.288785, -43.949714], [-65.288964, -43.949393], [-65.28875, -43.948786], [-65.288393, -43.948251], [-65.288535, -43.947573], [-65.288892, -43.946787], [-65.28982, -43.945966], [-65.290106, -43.94511], [-65.290164, -43.944923], [-65.290427, -43.944075], [-65.290784, -43.943254], [-65.291141, -43.942469], [-65.292497, -43.941505], [-65.293175, -43.940863], [-65.293461, -43.940434], [-65.293172, -43.939728], [-65.29314, -43.939649], [-65.292854, -43.939399], [-65.29289, -43.938792], [-65.293354, -43.938864], [-65.293408, -43.938888], [-65.293746, -43.939042], [-65.294603, -43.938899], [-65.295353, -43.938364], [-65.295888, -43.937615], [-65.296923, -43.936794], [-65.297283, -43.936409], [-65.297664, -43.936001], [-65.297958, -43.935687], [-65.298335, -43.935105], [-65.298351, -43.93508], [-65.299029, -43.934152], [-65.299421, -43.933439], [-65.2996, -43.932653], [-65.299529, -43.932011], [-65.299885, -43.931154], [-65.299919, -43.931049], [-65.300242, -43.930048], [-65.300385, -43.929405], [-65.300492, -43.927871], [-65.300476, -43.927685], [-65.300385, -43.926621], [-65.300613, -43.923032], [-65.300706, -43.921553], [-65.300992, -43.920411], [-65.301956, -43.919876], [-65.302134, -43.919055], [-65.302812, -43.917806], [-65.302991, -43.916699], [-65.302493, -43.916326], [-65.302277, -43.916164], [-65.302098, -43.915735], [-65.30206, -43.915333], [-65.302027, -43.914986], [-65.301782, -43.914715], [-65.301349, -43.914236], [-65.301534, -43.914162], [-65.301706, -43.914094], [-65.302348, -43.913701], [-65.302395, -43.913481], [-65.302491, -43.913023], [-65.302027, -43.91238], [-65.302634, -43.912059], [-65.30334, -43.9116], [-65.303348, -43.911595], [-65.303444, -43.911291], [-65.303562, -43.910917], [-65.303573, -43.910905], [-65.304169, -43.91031], [-65.304383, -43.909454], [-65.304396, -43.909401], [-65.304561, -43.90874], [-65.304954, -43.908097], [-65.305453, -43.907384], [-65.305826, -43.906989], [-65.30606, -43.906741], [-65.306185, -43.906384], [-65.30631, -43.906027], [-65.306132, -43.905528], [-65.30581, -43.905242], [-65.305489, -43.905028], [-65.305551, -43.90472], [-65.305561, -43.904671], [-65.305775, -43.904528], [-65.306239, -43.903886], [-65.306132, -43.90335], [-65.305775, -43.903136], [-65.306239, -43.902565], [-65.306167, -43.90203], [-65.306274, -43.901209], [-65.306239, -43.900709], [-65.306489, -43.899853], [-65.306738, -43.899103], [-65.307238, -43.898746], [-65.307559, -43.898318], [-65.308523, -43.897997], [-65.308737, -43.897283], [-65.308737, -43.896712], [-65.308836, -43.895983], [-65.308844, -43.895926], [-65.30888, -43.89507], [-65.308987, -43.893963], [-65.309736, -43.892964], [-65.309879, -43.892322], [-65.3107, -43.891286], [-65.311057, -43.890573], [-65.311021, -43.890144], [-65.310874, -43.88985], [-65.310736, -43.889573], [-65.3107, -43.888966], [-65.310807, -43.88836], [-65.311002, -43.88815], [-65.311271, -43.88786], [-65.311664, -43.886539], [-65.311823, -43.886034], [-65.312056, -43.88529], [-65.312663, -43.883863], [-65.312784, -43.883655], [-65.313306, -43.882756], [-65.313805, -43.881507], [-65.314127, -43.880793], [-65.314555, -43.879829], [-65.315406, -43.877789], [-65.315584, -43.877265], [-65.315786, -43.876778], [-65.31581, -43.876361], [-65.315929, -43.875897], [-65.316, -43.875481], [-65.316036, -43.875219], [-65.316119, -43.874827], [-65.316084, -43.874363], [-65.316036, -43.873958], [-65.31606, -43.873518], [-65.316, -43.87303], [-65.31606, -43.872554], [-65.316096, -43.872221], [-65.316238, -43.871817], [-65.316524, -43.871245], [-65.316762, -43.870829], [-65.316857, -43.870615], [-65.317024, -43.870306], [-65.317166, -43.869853], [-65.317226, -43.86952], [-65.317224, -43.869413], [-65.317214, -43.868771], [-65.31725, -43.868116], [-65.317297, -43.867843], [-65.317202, -43.867557], [-65.317095, -43.867188], [-65.316928, -43.866879], [-65.316857, -43.866594], [-65.316702, -43.866189], [-65.316714, -43.865844], [-65.316762, -43.865487], [-65.31675, -43.865178], [-65.316679, -43.8645], [-65.316726, -43.864274], [-65.316774, -43.86394], [-65.31675, -43.863679], [-65.316655, -43.863334], [-65.316655, -43.86312], [-65.316595, -43.862703], [-65.316643, -43.86243], [-65.316571, -43.862156], [-65.316357, -43.862061], [-65.316762, -43.861751], [-65.31694, -43.861632], [-65.317059, -43.861442], [-65.317357, -43.861383], [-65.317464, -43.861157], [-65.317642, -43.861133], [-65.317651, -43.861129], [-65.318344, -43.860823], [-65.318784, -43.860383], [-65.319046, -43.85986], [-65.319439, -43.859503], [-65.319522, -43.859265], [-65.3197, -43.859063], [-65.319962, -43.858956], [-65.320272, -43.858646], [-65.320533, -43.858384], [-65.320736, -43.85823], [-65.321045, -43.858146], [-65.321426, -43.858051], [-65.321806, -43.857932], [-65.322235, -43.85779], [-65.322651, -43.857409], [-65.322818, -43.85723], [-65.32287, -43.857129], [-65.32302, -43.856838], [-65.322996, -43.856564], [-65.323139, -43.856374], [-65.323389, -43.856136], [-65.323853, -43.855374], [-65.324261, -43.854809], [-65.324317, -43.854732], [-65.324793, -43.85422], [-65.325245, -43.853697], [-65.326006, -43.852805], [-65.326208, -43.852376], [-65.326339, -43.852031], [-65.326458, -43.851698], [-65.326518, -43.851329], [-65.326553, -43.850901], [-65.326577, -43.85052], [-65.326577, -43.850211], [-65.326696, -43.849925], [-65.326851, -43.849688], [-65.326898, -43.849426], [-65.327053, -43.849033], [-65.327196, -43.848664], [-65.32729, -43.848537], [-65.327362, -43.848438], [-65.327493, -43.848141], [-65.327565, -43.847951], [-65.3276, -43.847872], [-65.327672, -43.847713], [-65.327767, -43.847368], [-65.327969, -43.847106], [-65.328183, -43.846689], [-65.32835, -43.84644], [-65.328426, -43.846265], [-65.328469, -43.846166], [-65.328552, -43.845857], [-65.328576, -43.845666], [-65.328576, -43.84544], [-65.328564, -43.845226], [-65.328493, -43.845059], [-65.328457, -43.844679], [-65.328445, -43.844536], [-65.328528, -43.844488], [-65.328528, -43.844358], [-65.328516, -43.844203], [-65.328493, -43.843965], [-65.328481, -43.843895], [-65.328469, -43.843822], [-65.328421, -43.843739], [-65.328362, -43.843549], [-65.328193, -43.843361], [-65.328148, -43.843311], [-65.328076, -43.843203], [-65.328057, -43.84311], [-65.32804, -43.843025], [-65.327978, -43.842963], [-65.327862, -43.842847], [-65.327755, -43.842728], [-65.327529, -43.842513], [-65.327315, -43.842335], [-65.327053, -43.842109], [-65.32691, -43.842002], [-65.326744, -43.841764], [-65.32653, -43.841431], [-65.326387, -43.841169], [-65.326208, -43.840931], [-65.326113, -43.840586], [-65.325994, -43.840431], [-65.325982, -43.840324], [-65.325923, -43.840301], [-65.325828, -43.840051], [-65.325744, -43.839718], [-65.32572, -43.839218], [-65.325709, -43.838861], [-65.325756, -43.838504], [-65.325813, -43.83818], [-65.325828, -43.8381], [-65.325839, -43.837838], [-65.325982, -43.837457], [-65.326089, -43.837172], [-65.326173, -43.83685], [-65.326256, -43.836636], [-65.326196, -43.836553], [-65.326292, -43.83647], [-65.326375, -43.836255], [-65.326363, -43.83616], [-65.326399, -43.83597], [-65.326482, -43.835756], [-65.326518, -43.835589], [-65.326446, -43.835363], [-65.326494, -43.83509], [-65.326506, -43.834828], [-65.326482, -43.834637], [-65.326434, -43.834542], [-65.326399, -43.834459], [-65.326494, -43.834316], [-65.326482, -43.834197], [-65.326422, -43.834054], [-65.326387, -43.833935], [-65.326351, -43.833769], [-65.326322, -43.833686], [-65.32628, -43.833567], [-65.326256, -43.833519], [-65.326196, -43.833412], [-65.326268, -43.833293], [-65.326256, -43.833115], [-65.326196, -43.832924], [-65.326113, -43.832746], [-65.326054, -43.832639], [-65.325958, -43.832603], [-65.325982, -43.83252], [-65.32603, -43.832317], [-65.325982, -43.832198], [-65.325947, -43.832103], [-65.325935, -43.831996], [-65.325839, -43.831877], [-65.325863, -43.831746], [-65.325899, -43.831616], [-65.325839, -43.831461], [-65.325839, -43.831354], [-65.325732, -43.831223], [-65.325709, -43.831128], [-65.32559, -43.830985], [-65.325494, -43.830937], [-65.325471, -43.830866], [-65.325471, -43.830688], [-65.325447, -43.830604], [-65.325375, -43.830485], [-65.325114, -43.83039], [-65.325019, -43.830235], [-65.324864, -43.830116], [-65.324781, -43.829938], [-65.324602, -43.829795], [-65.324495, -43.829688], [-65.324424, -43.829617], [-65.324293, -43.829581], [-65.324221, -43.829533], [-65.324269, -43.829486], [-65.324221, -43.829319], [-65.32415, -43.829224], [-65.324138, -43.829093], [-65.32396, -43.828939], [-65.323865, -43.828772], [-65.323793, -43.828558], [-65.323698, -43.828439], [-65.323615, -43.828344], [-65.323531, -43.82826], [-65.323472, -43.828046], [-65.323377, -43.82782], [-65.323341, -43.827654], [-65.323317, -43.82738], [-65.32335, -43.827123], [-65.323365, -43.827011], [-65.323305, -43.826547], [-65.32327, -43.826143], [-65.323169, -43.826001], [-65.323067, -43.825857], [-65.322937, -43.8255], [-65.322841, -43.825131], [-65.322734, -43.824644], [-65.322687, -43.824287], [-65.322639, -43.823894], [-65.32258, -43.823644], [-65.322584, -43.823612], [-65.322615, -43.823359], [-65.322568, -43.823168], [-65.322413, -43.822883], [-65.322258, -43.822526], [-65.322068, -43.822252], [-65.321937, -43.821919], [-65.321866, -43.821622], [-65.321747, -43.821324], [-65.32158, -43.821039], [-65.321366, -43.820777], [-65.321283, -43.820515], [-65.321211, -43.82042], [-65.321247, -43.820349], [-65.321223, -43.82017], [-65.321223, -43.819932], [-65.321426, -43.819718], [-65.321426, -43.819456], [-65.321473, -43.819397], [-65.321509, -43.819195], [-65.321509, -43.819028], [-65.321485, -43.818957], [-65.321378, -43.818874], [-65.321414, -43.818814], [-65.321509, -43.818755], [-65.321747, -43.818659], [-65.321973, -43.818528], [-65.322068, -43.818291], [-65.322223, -43.817791], [-65.322342, -43.817482], [-65.322603, -43.81716], [-65.322818, -43.817041], [-65.323115, -43.816791], [-65.323329, -43.816446], [-65.32346, -43.816161], [-65.323472, -43.815923], [-65.323627, -43.815673], [-65.323591, -43.815459], [-65.323601, -43.815268], [-65.323603, -43.815245], [-65.323662, -43.814888], [-65.323757, -43.814626], [-65.323817, -43.814388], [-65.323817, -43.814186], [-65.323734, -43.813889], [-65.323615, -43.813698], [-65.323543, -43.813544], [-65.323472, -43.813294], [-65.323448, -43.813103], [-65.32327, -43.812961], [-65.323067, -43.812913], [-65.322996, -43.812877], [-65.322889, -43.812865], [-65.322746, -43.812675], [-65.322603, -43.812532], [-65.32233, -43.812223], [-65.322104, -43.812116], [-65.321997, -43.81183], [-65.321901, -43.81139], [-65.321878, -43.810879], [-65.321875, -43.810844], [-65.321842, -43.810355], [-65.321711, -43.81001], [-65.321735, -43.809558], [-65.321901, -43.809356], [-65.322163, -43.809201], [-65.322294, -43.808999], [-65.322473, -43.808761], [-65.322508, -43.808559], [-65.322663, -43.808487], [-65.322901, -43.808285], [-65.322948, -43.807999], [-65.322935, -43.807872], [-65.322901, -43.807559], [-65.322699, -43.80725], [-65.322365, -43.806845], [-65.322092, -43.806679], [-65.321771, -43.806548], [-65.321378, -43.806393], [-65.320866, -43.80625], [-65.319903, -43.806036], [-65.319355, -43.805786], [-65.318987, -43.805632], [-65.318213, -43.805346], [-65.317702, -43.805168], [-65.317488, -43.805049], [-65.317273, -43.804847], [-65.317107, -43.804597], [-65.316821, -43.804418], [-65.316631, -43.804145], [-65.316357, -43.803823], [-65.316286, -43.803687], [-65.316226, -43.803574], [-65.316107, -43.803371], [-65.315713, -43.802977], [-65.315679, -43.802943], [-65.315634, -43.802826], [-65.315382, -43.80217], [-65.315263, -43.801599], [-65.315096, -43.800801], [-65.314739, -43.799957], [-65.314287, -43.799576], [-65.31399, -43.799398], [-65.313809, -43.799335], [-65.31368, -43.799291], [-65.313538, -43.799076], [-65.313403, -43.798817], [-65.313371, -43.798755], [-65.313169, -43.798303], [-65.312836, -43.797899], [-65.312693, -43.797744], [-65.312419, -43.797561], [-65.312229, -43.797435], [-65.311872, -43.797101], [-65.311598, -43.796768], [-65.311479, -43.796518], [-65.311396, -43.796221], [-65.311313, -43.7959], [-65.31123, -43.795721], [-65.311194, -43.795579], [-65.311114, -43.794735], [-65.294556, -43.764001], [-65.285467, -43.747129], [-65.274283, -43.726372], [-65.272944, -43.710106], [-65.270976, -43.686192], [-65.268312, -43.653832], [-65.265201, -43.616041], [-65.262605, -43.584513], [-65.262429, -43.582368], [-65.262028, -43.582012], [-65.261433, -43.581298], [-65.260779, -43.580733], [-65.26066, -43.580405], [-65.260927, -43.579959], [-65.261135, -43.579602], [-65.261314, -43.578918], [-65.261225, -43.578145], [-65.260898, -43.57755], [-65.260481, -43.577193], [-65.259955, -43.576645], [-65.259767, -43.57645], [-65.259053, -43.575825], [-65.258786, -43.575409], [-65.258732, -43.575266], [-65.258607, -43.574933], [-65.258042, -43.574189], [-65.257447, -43.573624], [-65.257079, -43.573494], [-65.256942, -43.573445], [-65.256528, -43.572929], [-65.256347, -43.572702], [-65.256074, -43.572463], [-65.254651, -43.571215], [-65.254459, -43.571043], [-65.254086, -43.570709], [-65.253254, -43.570114], [-65.252421, -43.569638], [-65.251558, -43.569073], [-65.250666, -43.568478], [-65.250041, -43.568181], [-65.249519, -43.568072], [-65.249327, -43.568032], [-65.248703, -43.567913], [-65.248078, -43.567616], [-65.247637, -43.567473], [-65.247067, -43.567289], [-65.246442, -43.567021], [-65.245818, -43.566724], [-65.245223, -43.566367], [-65.244539, -43.566158], [-65.243825, -43.565623], [-65.243111, -43.565058], [-65.242516, -43.564552], [-65.242219, -43.564136], [-65.241505, -43.5636], [-65.241089, -43.563154], [-65.240285, -43.562768], [-65.239542, -43.562173], [-65.23862, -43.561608], [-65.237906, -43.561162], [-65.237281, -43.560834], [-65.23633, -43.560269], [-65.235787, -43.559957], [-65.23514, -43.559585], [-65.234396, -43.559079], [-65.233813, -43.558652], [-65.233504, -43.558425], [-65.232961, -43.558126], [-65.232641, -43.557949], [-65.232526, -43.557857], [-65.232047, -43.557473], [-65.231125, -43.556908], [-65.230616, -43.556677], [-65.230143, -43.556462], [-65.229399, -43.556194], [-65.228656, -43.555956], [-65.227704, -43.555808], [-65.226663, -43.555718], [-65.225979, -43.555867], [-65.225873, -43.555897], [-65.225444, -43.556016], [-65.224819, -43.556313], [-65.224105, -43.556432], [-65.223391, -43.556016], [-65.222618, -43.555629], [-65.221815, -43.555183], [-65.221398, -43.554826], [-65.220595, -43.554588], [-65.219971, -43.554112], [-65.219078, -43.553785], [-65.218722, -43.553369], [-65.218216, -43.552982], [-65.217651, -43.552595], [-65.217115, -43.552209], [-65.216431, -43.551852], [-65.215836, -43.551465], [-65.215509, -43.551108], [-65.215182, -43.55096], [-65.215004, -43.550632], [-65.214468, -43.550186], [-65.214052, -43.549919], [-65.213403, -43.54958], [-65.213368, -43.549562], [-65.212416, -43.549234], [-65.211732, -43.549056], [-65.211316, -43.548967], [-65.21084, -43.549175], [-65.210602, -43.549086], [-65.210512, -43.548818], [-65.210423, -43.548461], [-65.210245, -43.548283], [-65.209927, -43.548052], [-65.209918, -43.548045], [-65.20965, -43.547926], [-65.209382, -43.547718], [-65.209323, -43.547509], [-65.209382, -43.547182], [-65.209115, -43.546855], [-65.208698, -43.546647], [-65.20852, -43.546468], [-65.208401, -43.546052], [-65.208103, -43.545814], [-65.207568, -43.545576], [-65.207335, -43.545559], [-65.207151, -43.545546], [-65.206854, -43.545725], [-65.206586, -43.545546], [-65.206467, -43.545457], [-65.206438, -43.545249], [-65.206469, -43.545166], [-65.206527, -43.545011], [-65.206586, -43.544832], [-65.206705, -43.544416], [-65.205724, -43.543821], [-65.205484, -43.543675], [-65.20533, -43.543582], [-65.20504, -43.543405], [-65.204594, -43.543316], [-65.204237, -43.543316], [-65.203761, -43.543435], [-65.203363, -43.543548], [-65.203344, -43.543554], [-65.203329, -43.543546], [-65.202898, -43.543316], [-65.202117, -43.54345], [-65.202036, -43.543464], [-65.201352, -43.543494], [-65.201014, -43.543336], [-65.200905, -43.543286], [-65.20034, -43.543167], [-65.199716, -43.54281], [-65.199121, -43.542602], [-65.198585, -43.542007], [-65.198199, -43.541858], [-65.197753, -43.54168], [-65.197277, -43.541471], [-65.19686, -43.541144], [-65.196444, -43.540936], [-65.196027, -43.540758], [-65.195046, -43.540311], [-65.194511, -43.540014], [-65.194005, -43.539865], [-65.193767, -43.539508], [-65.193886, -43.538973], [-65.193886, -43.538616], [-65.194064, -43.537694], [-65.193975, -43.536921], [-65.194154, -43.536356], [-65.194362, -43.535523], [-65.194511, -43.534928], [-65.19457, -43.534244], [-65.194302, -43.53356], [-65.194005, -43.533203], [-65.193995, -43.533186], [-65.193696, -43.532689], [-65.193559, -43.532459], [-65.193113, -43.531894], [-65.192696, -43.53121], [-65.19231, -43.530526], [-65.192072, -43.529931], [-65.191744, -43.529009], [-65.191209, -43.528414], [-65.190679, -43.528101], [-65.190555, -43.528028], [-65.189811, -43.527403], [-65.189127, -43.526986], [-65.188824, -43.526823], [-65.18874, -43.526778], [-65.188146, -43.526451], [-65.187521, -43.52643], [-65.187253, -43.526421], [-65.18648, -43.525975], [-65.186004, -43.525529], [-65.185808, -43.525333], [-65.185528, -43.525053], [-65.185022, -43.524696], [-65.18416, -43.524191], [-65.183476, -43.523715], [-65.183, -43.523031], [-65.182197, -43.522019], [-65.181661, -43.521187], [-65.181186, -43.520354], [-65.180591, -43.51961], [-65.180115, -43.519253], [-65.179342, -43.518658], [-65.178866, -43.518272], [-65.178568, -43.517588], [-65.178509, -43.516993], [-65.178509, -43.516309], [-65.17836, -43.515892], [-65.178182, -43.515476], [-65.178182, -43.51503], [-65.178003, -43.514524], [-65.177765, -43.514316], [-65.177527, -43.51387], [-65.176992, -43.513424], [-65.176189, -43.512739], [-65.175653, -43.512293], [-65.175505, -43.511579], [-65.175653, -43.511371], [-65.175564, -43.510895], [-65.175564, -43.510182], [-65.175713, -43.509706], [-65.175653, -43.508843], [-65.175356, -43.508248], [-65.175118, -43.507921], [-65.175058, -43.507386], [-65.174612, -43.50685], [-65.174345, -43.506374], [-65.174164, -43.506194], [-65.174047, -43.506077], [-65.174047, -43.505393], [-65.173452, -43.504679], [-65.172976, -43.504322], [-65.17262, -43.503727], [-65.171876, -43.503341], [-65.171395, -43.503066], [-65.170835, -43.502746], [-65.170091, -43.5023], [-65.169407, -43.501615], [-65.168931, -43.500961], [-65.168733, -43.500686], [-65.168545, -43.500426], [-65.168218, -43.499861], [-65.16798, -43.499415], [-65.167682, -43.498879], [-65.167355, -43.498195], [-65.166492, -43.497362], [-65.166076, -43.496738], [-65.165689, -43.496291], [-65.165451, -43.495607], [-65.165303, -43.495369], [-65.165362, -43.495042], [-65.165035, -43.494864], [-65.164172, -43.493912], [-65.163607, -43.493466], [-65.162864, -43.492722], [-65.162477, -43.492187], [-65.16212, -43.49183], [-65.161287, -43.490759], [-65.160484, -43.489867], [-65.159889, -43.489361], [-65.159295, -43.488796], [-65.158402, -43.487666], [-65.15751, -43.487131], [-65.157004, -43.486506], [-65.156439, -43.48609], [-65.156053, -43.48609], [-65.155487, -43.485733], [-65.15513, -43.485435], [-65.154684, -43.485078], [-65.15403, -43.484573], [-65.153614, -43.483829], [-65.153078, -43.482937], [-65.152662, -43.482312], [-65.152364, -43.48139], [-65.151561, -43.480349], [-65.150699, -43.479368], [-65.149896, -43.478564], [-65.149212, -43.47794], [-65.148468, -43.477137], [-65.147665, -43.475828], [-65.146594, -43.474847], [-65.145196, -43.47333], [-65.144304, -43.472586], [-65.143471, -43.471813], [-65.14243, -43.470861], [-65.141032, -43.469701], [-65.139634, -43.468065], [-65.138593, -43.466935], [-65.137552, -43.466043], [-65.136452, -43.46515], [-65.134697, -43.463752], [-65.13312, -43.462354], [-65.131395, -43.461075], [-65.130116, -43.459826], [-65.1286, -43.458636], [-65.126579, -43.457077], [-65.125863, -43.456525], [-65.125327, -43.456028], [-65.124257, -43.455038], [-65.121818, -43.453253], [-65.120777, -43.452123], [-65.119617, -43.451141], [-65.117535, -43.449565], [-65.115988, -43.448256], [-65.114709, -43.447066], [-65.113579, -43.446323], [-65.112122, -43.445252], [-65.11114, -43.444687], [-65.110456, -43.444181], [-65.109861, -43.443735], [-65.10885, -43.442992], [-65.107363, -43.442248], [-65.106114, -43.441356], [-65.104864, -43.440553], [-65.103139, -43.439333], [-65.10192, -43.438381], [-65.100373, -43.43737], [-65.099243, -43.436745], [-65.097964, -43.436002], [-65.096804, -43.43508], [-65.095703, -43.434634], [-65.094841, -43.433831], [-65.094068, -43.433236], [-65.092908, -43.432522], [-65.091658, -43.43163], [-65.090766, -43.430827], [-65.090761, -43.430814], [-65.090469, -43.430172], [-65.090417, -43.429926], [-65.090201, -43.428893], [-65.089666, -43.428298], [-65.089219, -43.427644], [-65.088238, -43.426841], [-65.087167, -43.425919], [-65.086394, -43.425354], [-65.084758, -43.42461], [-65.084044, -43.424313], [-65.083301, -43.423896], [-65.082349, -43.42345], [-65.081784, -43.423064], [-65.081308, -43.422469], [-65.08128, -43.422446], [-65.080123, -43.421477], [-65.080029, -43.421398], [-65.079345, -43.421071], [-65.07872, -43.420446], [-65.077976, -43.419732], [-65.077322, -43.419227], [-65.076043, -43.418305], [-65.073991, -43.416936], [-65.071701, -43.41533], [-65.069699, -43.414132], [-65.068122, -43.413204], [-65.065616, -43.411441], [-65.064085, -43.410791], [-65.062601, -43.409956], [-65.06158, -43.409353], [-65.060652, -43.408611], [-65.059678, -43.407729], [-65.058611, -43.406848], [-65.05854, -43.406766], [-65.057729, -43.405827], [-65.056569, -43.405131], [-65.055317, -43.404342], [-65.054157, -43.403786], [-65.05309, -43.403043], [-65.052579, -43.402579], [-65.052208, -43.401466], [-65.052208, -43.400213], [-65.051837, -43.398033], [-65.051327, -43.396873], [-65.050584, -43.394924], [-65.049842, -43.393532], [-65.048728, -43.390888], [-65.047336, -43.388475], [-65.046409, -43.387176], [-65.045573, -43.386155], [-65.044877, -43.384856], [-65.044228, -43.383789], [-65.043671, -43.382443], [-65.043486, -43.381516], [-65.043532, -43.381052], [-65.044135, -43.380402], [-65.045481, -43.380077], [-65.046223, -43.379381], [-65.04664, -43.378268], [-65.046687, -43.37683], [-65.046594, -43.375438], [-65.045991, -43.373443], [-65.045446, -43.372646], [-65.045388, -43.372561], [-65.045388, -43.371958], [-65.045602, -43.371556], [-65.045759, -43.371262], [-65.046733, -43.368849], [-65.047104, -43.367458], [-65.046919, -43.366158], [-65.046872, -43.364952], [-65.047025, -43.364075], [-65.047058, -43.363885], [-65.047115, -43.363742], [-65.047522, -43.362725], [-65.048264, -43.361936], [-65.050074, -43.360173], [-65.050863, -43.358689], [-65.051234, -43.3579], [-65.052208, -43.356415], [-65.053275, -43.355441], [-65.054528, -43.354049], [-65.055363, -43.353028], [-65.055781, -43.351544], [-65.055966, -43.349688], [-65.055781, -43.348203], [-65.056012, -43.346672], [-65.056105, -43.345095], [-65.055595, -43.344213], [-65.054796, -43.343961], [-65.054713, -43.343935], [-65.054713, -43.343703], [-65.054732, -43.343694], [-65.056198, -43.343007], [-65.05643, -43.342172], [-65.05476, -43.340873], [-65.054574, -43.339898], [-65.054481, -43.339342], [-65.054314, -43.33865], [-65.054124, -43.337889], [-65.05391, -43.337294], [-65.053743, -43.336651], [-65.053458, -43.335938], [-65.053101, -43.335129], [-65.052673, -43.333963], [-65.052482, -43.333249], [-65.05184, -43.331988], [-65.051316, -43.330869], [-65.05065, -43.329418], [-65.050293, -43.328276], [-65.049817, -43.327372], [-65.048984, -43.325991], [-65.048342, -43.324921], [-65.047961, -43.324392], [-65.046087, -43.321507], [-65.044184, -43.31889], [-65.041596, -43.315767], [-65.040347, -43.314488], [-65.036332, -43.31077], [-65.034636, -43.309075], [-65.032525, -43.307231], [-65.030799, -43.305654], [-65.029134, -43.304078], [-65.027022, -43.302085], [-65.024881, -43.299587], [-65.021787, -43.296404], [-65.018367, -43.292865], [-65.016136, -43.290158], [-65.013816, -43.287838], [-65.011704, -43.285845], [-65.00989, -43.284001], [-65.007927, -43.281503], [-65.004893, -43.278439], [-65.003168, -43.276625], [-65.001651, -43.275078], [-64.999301, -43.272996], [-64.995762, -43.269784], [-64.992966, -43.267494], [-64.98898, -43.26449], [-64.986036, -43.262437], [-64.982943, -43.260296], [-64.980087, -43.258392], [-64.977916, -43.256964], [-64.976815, -43.255388], [-64.97634, -43.254972], [-64.974436, -43.253931], [-64.973484, -43.253336], [-64.970867, -43.252325], [-64.969082, -43.2517], [-64.967446, -43.250778], [-64.9659, -43.249767], [-64.964472, -43.249142], [-64.962747, -43.248398], [-64.960962, -43.247179], [-64.958315, -43.245365], [-64.956203, -43.244026], [-64.954627, -43.243134], [-64.952218, -43.241795], [-64.951206, -43.241201], [-64.949719, -43.240368], [-64.947548, -43.239208], [-64.94505, -43.23781], [-64.943949, -43.237304], [-64.942521, -43.236501], [-64.941599, -43.235787], [-64.939488, -43.234746], [-64.937287, -43.233586], [-64.935383, -43.232575], [-64.933271, -43.231385], [-64.93229, -43.230999], [-64.931606, -43.230642], [-64.930773, -43.229987], [-64.929196, -43.229065], [-64.927888, -43.228232], [-64.926579, -43.227667], [-64.924735, -43.226597], [-64.922326, -43.225228], [-64.921552, -43.224901], [-64.920809, -43.224425], [-64.91837, -43.223146], [-64.915217, -43.221451], [-64.911826, -43.219726], [-64.909893, -43.218804], [-64.909358, -43.218417], [-64.907871, -43.217644], [-64.906396, -43.216786], [-64.905313, -43.216157], [-64.903736, -43.215324], [-64.9021, -43.214491], [-64.90103, -43.213807], [-64.898263, -43.21229], [-64.896895, -43.211636], [-64.895973, -43.21116], [-64.893386, -43.209673], [-64.891809, -43.208721], [-64.890233, -43.207918], [-64.889489, -43.207561], [-64.889162, -43.207263], [-64.888091, -43.206788], [-64.886545, -43.206044], [-64.884774, -43.205111], [-64.883778, -43.204587], [-64.882619, -43.20414], [-64.881905, -43.203902], [-64.881161, -43.203575], [-64.880626, -43.203129], [-64.879733, -43.202653], [-64.877681, -43.20185], [-64.876789, -43.201553], [-64.876432, -43.201136], [-64.875272, -43.20069], [-64.874082, -43.200214], [-64.872179, -43.199233], [-64.870394, -43.198578], [-64.868937, -43.197686], [-64.867033, -43.197032], [-64.86626, -43.196645], [-64.865665, -43.196556], [-64.865278, -43.19611], [-64.863553, -43.195366], [-64.860579, -43.19382], [-64.857158, -43.192392], [-64.853678, -43.190756], [-64.851388, -43.189745], [-64.849603, -43.188882], [-64.847462, -43.18799], [-64.845975, -43.187514], [-64.844904, -43.186949], [-64.840264, -43.185253], [-64.838717, -43.184421], [-64.833869, -43.182577], [-64.832947, -43.18222], [-64.831995, -43.181714], [-64.830003, -43.180792], [-64.825303, -43.178353], [-64.820604, -43.17642], [-64.814655, -43.173773], [-64.808647, -43.171096], [-64.806506, -43.170203], [-64.802817, -43.168686], [-64.800854, -43.167735], [-64.798534, -43.166783], [-64.796125, -43.165712], [-64.794073, -43.165117], [-64.791545, -43.163987], [-64.790147, -43.163422], [-64.78741, -43.162292], [-64.785031, -43.16128], [-64.781729, -43.159912], [-64.777744, -43.158544], [-64.774561, -43.157414], [-64.771557, -43.156075], [-64.768494, -43.154975], [-64.764657, -43.153309], [-64.760969, -43.151882], [-64.759273, -43.151257], [-64.757608, -43.150603], [-64.757042, -43.150424], [-64.754812, -43.149651], [-64.75264, -43.149026], [-64.750588, -43.148521], [-64.748328, -43.147955], [-64.747049, -43.147509], [-64.745294, -43.147033], [-64.744372, -43.146736], [-64.743985, -43.146498], [-64.743599, -43.146528], [-64.742528, -43.146201], [-64.740803, -43.145427], [-64.73884, -43.144565], [-64.736341, -43.143494], [-64.734824, -43.142959], [-64.733634, -43.142691], [-64.732564, -43.142304], [-64.731374, -43.141947], [-64.729411, -43.141412], [-64.728281, -43.141263], [-64.727269, -43.141085], [-64.725812, -43.140579], [-64.724712, -43.140014], [-64.7237, -43.139717], [-64.722451, -43.139241], [-64.719298, -43.138289], [-64.717662, -43.137843], [-64.715313, -43.136921], [-64.71326, -43.136177], [-64.711862, -43.135671], [-64.70984, -43.134987], [-64.708234, -43.134274], [-64.706449, -43.133679], [-64.70517, -43.133173], [-64.703534, -43.132727], [-64.70175, -43.132162], [-64.699608, -43.131388], [-64.696812, -43.130556], [-64.693719, -43.129396], [-64.690953, -43.128474], [-64.689049, -43.127819], [-64.687027, -43.127105], [-64.685272, -43.12657], [-64.683844, -43.126124], [-64.682625, -43.125678], [-64.680602, -43.125172], [-64.679591, -43.124845], [-64.677241, -43.124161], [-64.676438, -43.124101], [-64.676081, -43.124012], [-64.675724, -43.124012], [-64.675486, -43.123834], [-64.675011, -43.123596], [-64.674535, -43.123447], [-64.673732, -43.123209], [-64.672988, -43.122971], [-64.672334, -43.122703], [-64.671352, -43.122555], [-64.670698, -43.122436], [-64.670281, -43.122317], [-64.669716, -43.122227], [-64.669151, -43.122079], [-64.668229, -43.121871], [-64.667396, -43.121424], [-64.666444, -43.121246], [-64.66582, -43.121127], [-64.664987, -43.120978], [-64.664541, -43.12077], [-64.664035, -43.120711], [-64.6635, -43.120562], [-64.662994, -43.120502], [-64.662191, -43.120264], [-64.661567, -43.120056], [-64.660288, -43.119759], [-64.659187, -43.119342], [-64.658652, -43.119134], [-64.657968, -43.118896], [-64.657135, -43.118748], [-64.656659, -43.118658], [-64.656302, -43.11851], [-64.655737, -43.11842], [-64.654428, -43.118063], [-64.652435, -43.117558], [-64.650918, -43.11726], [-64.649461, -43.116903], [-64.647706, -43.116338], [-64.646546, -43.116071], [-64.645654, -43.115892], [-64.644672, -43.115535], [-64.643661, -43.115535], [-64.64146, -43.114821], [-64.639973, -43.114524], [-64.638843, -43.114227], [-64.637594, -43.113899], [-64.636909, -43.113661], [-64.636077, -43.113513], [-64.635779, -43.113364], [-64.634798, -43.113245], [-64.633846, -43.113067], [-64.632894, -43.112769], [-64.632091, -43.112739], [-64.631585, -43.112591], [-64.63105, -43.112472], [-64.630753, -43.112412], [-64.62989, -43.112293], [-64.629087, -43.112145], [-64.628908, -43.111966], [-64.627957, -43.111728], [-64.627273, -43.111609], [-64.626916, -43.111371], [-64.626083, -43.111341], [-64.625488, -43.111044], [-64.625042, -43.111104], [-64.62409, -43.110866], [-64.623406, -43.110657], [-64.622662, -43.110568], [-64.621681, -43.110419], [-64.621145, -43.11033], [-64.620818, -43.11036], [-64.619658, -43.110092], [-64.617993, -43.109646], [-64.615821, -43.109081], [-64.614453, -43.108665], [-64.611717, -43.10804], [-64.609546, -43.107564], [-64.607434, -43.107118], [-64.605352, -43.106553], [-64.603181, -43.105988], [-64.601277, -43.10566], [-64.599909, -43.105423], [-64.598332, -43.105006], [-64.59744, -43.104679], [-64.59634, -43.104322], [-64.595418, -43.104054], [-64.593365, -43.103519], [-64.592057, -43.103162], [-64.591164, -43.102894], [-64.590302, -43.102746], [-64.589766, -43.102537], [-64.589171, -43.102448], [-64.588785, -43.102359], [-64.588011, -43.10224], [-64.586792, -43.101794], [-64.586257, -43.101467], [-64.585692, -43.101348], [-64.584769, -43.10114], [-64.583758, -43.100723], [-64.582509, -43.100366], [-64.581706, -43.100099], [-64.580814, -43.099771], [-64.578404, -43.098909], [-64.577393, -43.098671], [-64.576352, -43.098492], [-64.574984, -43.098106], [-64.5743, -43.097957], [-64.57317, -43.097481], [-64.572337, -43.097392], [-64.571355, -43.097124], [-64.57079, -43.096916], [-64.569243, -43.096559], [-64.568351, -43.096262], [-64.566715, -43.095964], [-64.565823, -43.095726], [-64.565109, -43.095578], [-64.564633, -43.095459], [-64.56386, -43.095042], [-64.563057, -43.094834], [-64.562373, -43.094626], [-64.561897, -43.094477], [-64.561481, -43.094358], [-64.561064, -43.094299], [-64.559488, -43.094209], [-64.55803, -43.093882], [-64.557703, -43.093614], [-64.557197, -43.093674], [-64.555532, -43.093406], [-64.554788, -43.093406], [-64.554104, -43.093436], [-64.553509, -43.093258], [-64.552201, -43.093079], [-64.550446, -43.092454], [-64.549405, -43.092098], [-64.548066, -43.091622], [-64.54643, -43.091116], [-64.544824, -43.090462], [-64.543278, -43.090016], [-64.54185, -43.08954], [-64.540987, -43.089212], [-64.53956, -43.088796], [-64.538281, -43.08838], [-64.536764, -43.087934], [-64.535455, -43.087428], [-64.533968, -43.086952], [-64.532392, -43.086268], [-64.531291, -43.08597], [-64.529834, -43.085465], [-64.528674, -43.085048], [-64.526592, -43.084305], [-64.525283, -43.083799], [-64.522963, -43.083115], [-64.521952, -43.082728], [-64.519989, -43.082015], [-64.518323, -43.08142], [-64.517163, -43.080974], [-64.515557, -43.080557], [-64.513207, -43.079843], [-64.51175, -43.079219], [-64.51053, -43.078743], [-64.5094, -43.078416], [-64.508508, -43.078029], [-64.50711, -43.077761], [-64.506515, -43.077672], [-64.50473, -43.076929], [-64.50244, -43.076215], [-64.500953, -43.075858], [-64.50009, -43.075471], [-64.498276, -43.074728], [-64.496967, -43.0744], [-64.495629, -43.073895], [-64.494796, -43.073568], [-64.492179, -43.072794], [-64.48974, -43.07214], [-64.488372, -43.071664], [-64.487212, -43.071367], [-64.485308, -43.070772], [-64.482393, -43.069909], [-64.480817, -43.069641], [-64.479478, -43.069493], [-64.477694, -43.069374], [-64.475939, -43.069255], [-64.474184, -43.069403], [-64.473113, -43.069374], [-64.472102, -43.069076], [-64.471358, -43.068838], [-64.470139, -43.068125], [-64.469425, -43.067678], [-64.468444, -43.066875], [-64.466897, -43.065834], [-64.466396, -43.065667], [-64.465558, -43.065388], [-64.46428, -43.06512], [-64.46365, -43.065035], [-64.462971, -43.064942], [-64.462373, -43.064883], [-64.462369, -43.064883], [-64.461156, -43.064764], [-64.45961, -43.064615], [-64.458955, -43.064466], [-64.458539, -43.064109], [-64.458063, -43.063604], [-64.457714, -43.063254], [-64.457706, -43.063247], [-64.457171, -43.062711], [-64.456011, -43.061908], [-64.454494, -43.060808], [-64.453304, -43.060183], [-64.452947, -43.059737], [-64.452201, -43.059284], [-64.452115, -43.059231], [-64.451192, -43.058428], [-64.450032, -43.057923], [-64.44795, -43.05706], [-64.446612, -43.056316], [-64.445751, -43.055771], [-64.44572, -43.055751], [-64.44568, -43.055722], [-64.444738, -43.055008], [-64.443548, -43.053699], [-64.44218, -43.05248], [-64.44102, -43.051617], [-64.439652, -43.050635], [-64.438105, -43.049743], [-64.436499, -43.048851], [-64.435964, -43.048524], [-64.435042, -43.047959], [-64.43415, -43.047245], [-64.433079, -43.046412], [-64.432379, -43.045775], [-64.432097, -43.04552], [-64.430967, -43.044776], [-64.430134, -43.044211], [-64.428677, -43.043229], [-64.426952, -43.04198], [-64.425762, -43.041237], [-64.425435, -43.041008], [-64.424186, -43.040136], [-64.422639, -43.039184], [-64.421776, -43.038887], [-64.421152, -43.038649], [-64.420408, -43.038024], [-64.419397, -43.037638], [-64.41794, -43.037132], [-64.417077, -43.036745], [-64.41623, -43.036026], [-64.416095, -43.035913], [-64.41443, -43.034782], [-64.413091, -43.03389], [-64.411812, -43.033325], [-64.411031, -43.032934], [-64.410147, -43.032492], [-64.408689, -43.031897], [-64.406994, -43.031064], [-64.405299, -43.030261], [-64.40396, -43.029815], [-64.401789, -43.029042], [-64.400213, -43.028596], [-64.398934, -43.028179], [-64.397327, -43.027882], [-64.395989, -43.027703], [-64.394532, -43.027436], [-64.39352, -43.02699], [-64.392003, -43.026365], [-64.390992, -43.026068], [-64.390826, -43.025874], [-64.390635, -43.025651], [-64.390427, -43.025235], [-64.39013, -43.024432], [-64.389237, -43.023093], [-64.387988, -43.022082], [-64.386114, -43.02116], [-64.384121, -43.020535], [-64.382188, -43.019821], [-64.380641, -43.019256], [-64.380255, -43.01884], [-64.379541, -43.018542], [-64.378916, -43.018394], [-64.377637, -43.018156], [-64.375704, -43.017293], [-64.374485, -43.016758], [-64.373384, -43.016222], [-64.373053, -43.016106], [-64.372373, -43.015866], [-64.372165, -43.015756], [-64.371362, -43.01533], [-64.370023, -43.014854], [-64.369426, -43.014693], [-64.36925, -43.014646], [-64.367911, -43.01417], [-64.366097, -43.013575], [-64.363926, -43.012862], [-64.361992, -43.012148], [-64.3611, -43.011999], [-64.360163, -43.011678], [-64.35997, -43.011612], [-64.355955, -43.010304], [-64.35587, -43.010286], [-64.353605, -43.009828], [-64.352326, -43.009471], [-64.351434, -43.009263], [-64.350839, -43.009084], [-64.348995, -43.008519], [-64.348132, -43.008281], [-64.346556, -43.007746], [-64.345842, -43.007389], [-64.34486, -43.007091], [-64.343405, -43.006542], [-64.343284, -43.006496], [-64.341886, -43.005872], [-64.339804, -43.00489], [-64.338912, -43.004444], [-64.338738, -43.004419], [-64.337692, -43.004266], [-64.335997, -43.004058], [-64.333915, -43.00379], [-64.332874, -43.003641], [-64.331803, -43.003254], [-64.331238, -43.003076], [-64.330584, -43.002749], [-64.330137, -43.002392], [-64.329334, -43.001857], [-64.32868, -43.00147], [-64.328145, -43.000994], [-64.32755, -43.00034], [-64.327193, -42.999774], [-64.326687, -42.999358], [-64.326152, -42.998942], [-64.325527, -42.998377], [-64.325141, -42.99799], [-64.325089, -42.997825], [-64.324962, -42.997425], [-64.324902, -42.99728], [-64.324813, -42.997068], [-64.324813, -42.996532], [-64.325111, -42.995967], [-64.325349, -42.994897], [-64.325408, -42.993885], [-64.32523, -42.993052], [-64.324962, -42.992487], [-64.324427, -42.991536], [-64.324129, -42.99097], [-64.323237, -42.990138], [-64.322612, -42.989335], [-64.321928, -42.98868], [-64.321036, -42.988115], [-64.320352, -42.987788], [-64.319698, -42.987342], [-64.318805, -42.986806], [-64.317853, -42.98642], [-64.316545, -42.986093], [-64.315058, -42.985974], [-64.3141, -42.985902], [-64.313868, -42.985884], [-64.313308, -42.98575], [-64.313124, -42.985706], [-64.31244, -42.985141], [-64.311964, -42.984695], [-64.311518, -42.983981], [-64.311225, -42.983687], [-64.311221, -42.983683], [-64.311216, -42.98368], [-64.310685, -42.983297], [-64.310031, -42.98297], [-64.309793, -42.982583], [-64.309615, -42.982077], [-64.309496, -42.981393], [-64.309049, -42.98062], [-64.308752, -42.980233], [-64.308306, -42.979609], [-64.307681, -42.979162], [-64.299162, -42.980072], [-64.282396, -42.971161], [-64.256878, -42.957598], [-64.209307, -42.932315], [-64.166936, -42.909794], [-64.117634, -42.883591], [-64.114109, -42.881717], [-64.110453, -42.878948], [-64.109611, -42.878843], [-64.107979, -42.878422], [-64.106979, -42.878474], [-64.105505, -42.878158], [-64.104137, -42.877685], [-64.102979, -42.877053], [-64.101558, -42.876685], [-64.100242, -42.876369], [-64.099189, -42.876421], [-64.0984, -42.876474], [-64.097136, -42.876685], [-64.096084, -42.876211], [-64.09482, -42.875106], [-64.093505, -42.874263], [-64.091031, -42.873474], [-64.088083, -42.873211], [-64.086768, -42.873579], [-64.084662, -42.873737], [-64.083188, -42.873421], [-64.082294, -42.872737], [-64.081241, -42.872421], [-64.079136, -42.871895], [-64.077872, -42.871369], [-64.076504, -42.870632], [-64.075083, -42.870369], [-64.07382, -42.870158], [-64.072767, -42.869842], [-64.071399, -42.869684], [-64.070451, -42.869632], [-64.068819, -42.869211], [-64.067188, -42.868632], [-64.065872, -42.868316], [-64.064834, -42.867992], [-64.062359, -42.867659], [-64.060741, -42.867373], [-64.05879, -42.866945], [-64.056649, -42.866754], [-64.054459, -42.866564], [-64.052175, -42.865945], [-64.0507, -42.86566], [-64.048844, -42.865327], [-64.047083, -42.864994], [-64.044989, -42.864803], [-64.043228, -42.864661], [-64.040373, -42.863994], [-64.038707, -42.863994], [-64.036138, -42.863614], [-64.034948, -42.863518], [-64.033092, -42.863376], [-64.03195, -42.863185], [-64.030998, -42.86309], [-64.029618, -42.863043], [-64.027238, -42.862757], [-64.025287, -42.862995], [-64.023955, -42.86309], [-64.022289, -42.862424], [-64.020195, -42.861853], [-64.01753, -42.860901], [-64.015246, -42.860425], [-64.013057, -42.860473], [-64.010868, -42.860473], [-64.009868, -42.86014], [-64.008631, -42.859616], [-64.006775, -42.858664], [-64.006061, -42.858188], [-64.004586, -42.857808], [-64.004068, -42.857604], [-64.003253, -42.857284], [-64.003004, -42.85706], [-64.002778, -42.856856], [-64.002206, -42.856095], [-64.001397, -42.855619], [-64.000113, -42.855238], [-63.998019, -42.854667], [-63.996067, -42.854714], [-63.994449, -42.855], [-63.993688, -42.854667], [-63.992118, -42.853382], [-63.990024, -42.85243], [-63.986216, -42.851621], [-63.983694, -42.850955], [-63.980601, -42.850193], [-63.978745, -42.850003], [-63.975604, -42.849575], [-63.974414, -42.849384], [-63.972606, -42.849146], [-63.970464, -42.848909], [-63.968942, -42.849051], [-63.96818, -42.849527], [-63.967657, -42.850241], [-63.9668, -42.850241], [-63.966229, -42.84967], [-63.96561, -42.849099], [-63.965325, -42.848195], [-63.964897, -42.847671], [-63.964135, -42.847195], [-63.963326, -42.847005], [-63.96266, -42.84691], [-63.960994, -42.846719], [-63.9589, -42.846053], [-63.957139, -42.84553], [-63.954903, -42.844816], [-63.953427, -42.84453], [-63.95219, -42.844483], [-63.950477, -42.843959], [-63.947907, -42.843531], [-63.945956, -42.843436], [-63.943814, -42.843198], [-63.942101, -42.842865], [-63.93996, -42.842532], [-63.938437, -42.842103], [-63.936438, -42.842103], [-63.935106, -42.842198], [-63.933726, -42.841913], [-63.932441, -42.841961], [-63.929347, -42.842103], [-63.925826, -42.842103], [-63.92435, -42.842341], [-63.922471, -42.843079], [-63.920746, -42.843674], [-63.918723, -42.843674], [-63.916939, -42.842901], [-63.916463, -42.842544], [-63.914764, -42.841376], [-63.913976, -42.841056], [-63.913138, -42.840924], [-63.913072, -42.840914], [-63.912647, -42.840554], [-63.912453, -42.84039], [-63.911692, -42.839724], [-63.910579, -42.839501], [-63.910502, -42.839486], [-63.909645, -42.839391], [-63.909074, -42.838962], [-63.908973, -42.838684], [-63.908884, -42.838439], [-63.909122, -42.837868], [-63.908789, -42.837392], [-63.907932, -42.836868], [-63.90698, -42.836678], [-63.906314, -42.837106], [-63.905362, -42.837011], [-63.905267, -42.836583], [-63.904982, -42.83644], [-63.904125, -42.836726], [-63.901365, -42.836535], [-63.897748, -42.836059], [-63.894417, -42.836155], [-63.891752, -42.836155], [-63.889468, -42.835726], [-63.885898, -42.83525], [-63.883281, -42.835203], [-63.879712, -42.834584], [-63.878094, -42.834679], [-63.876952, -42.835108], [-63.876047, -42.83525], [-63.875096, -42.835012], [-63.873811, -42.834203], [-63.872145, -42.832966], [-63.870384, -42.831967], [-63.868386, -42.831396], [-63.865863, -42.830872], [-63.862247, -42.830111], [-63.859106, -42.829302], [-63.857012, -42.828921], [-63.854442, -42.828302], [-63.851967, -42.828112], [-63.850064, -42.827731], [-63.848065, -42.827969], [-63.846495, -42.827969], [-63.844448, -42.82854], [-63.84283, -42.827922], [-63.842307, -42.827113], [-63.841307, -42.826208], [-63.839689, -42.82559], [-63.837643, -42.824876], [-63.835835, -42.824353], [-63.834359, -42.824115], [-63.832741, -42.823734], [-63.831694, -42.823686], [-63.830695, -42.823781], [-63.829981, -42.823686], [-63.82784, -42.823639], [-63.82684, -42.824305], [-63.825984, -42.82459], [-63.823461, -42.823448], [-63.822081, -42.82321], [-63.821225, -42.823401], [-63.820511, -42.823115], [-63.819607, -42.822497], [-63.819083, -42.822211], [-63.818179, -42.822354], [-63.81756, -42.822259], [-63.816942, -42.822354], [-63.815942, -42.82283], [-63.8148, -42.822639], [-63.813991, -42.822592], [-63.812468, -42.822972], [-63.811421, -42.823401], [-63.810966, -42.823086], [-63.810803, -42.822972], [-63.810469, -42.822497], [-63.810707, -42.821783], [-63.810715, -42.821727], [-63.81085, -42.820688], [-63.810184, -42.820212], [-63.809185, -42.819641], [-63.807995, -42.819213], [-63.806995, -42.818832], [-63.804806, -42.818356], [-63.802998, -42.817833], [-63.800904, -42.817404], [-63.799857, -42.817262], [-63.799334, -42.816738], [-63.798087, -42.816364], [-63.797906, -42.81631], [-63.797889, -42.816284], [-63.797478, -42.815644], [-63.795907, -42.815311], [-63.794242, -42.815025], [-63.792052, -42.814644], [-63.790482, -42.814073], [-63.78815, -42.813693], [-63.785152, -42.813264], [-63.782439, -42.813026], [-63.780108, -42.812979], [-63.777776, -42.812455], [-63.774682, -42.81217], [-63.773112, -42.812312], [-63.77097, -42.812455], [-63.76683, -42.812027], [-63.764927, -42.811741], [-63.764022, -42.81117], [-63.762928, -42.810885], [-63.76131, -42.810409], [-63.759739, -42.810314], [-63.757836, -42.810361], [-63.756361, -42.810028], [-63.754695, -42.810076], [-63.752744, -42.809885], [-63.750555, -42.809743], [-63.74827, -42.809933], [-63.746367, -42.809933], [-63.745272, -42.810171], [-63.743749, -42.810314], [-63.742845, -42.810647], [-63.740513, -42.811075], [-63.739514, -42.811694], [-63.739324, -42.812455], [-63.739228, -42.813074], [-63.738229, -42.813026], [-63.736278, -42.812883], [-63.734517, -42.812693], [-63.732851, -42.812788], [-63.73228, -42.812455], [-63.731662, -42.811932], [-63.73071, -42.811408], [-63.729615, -42.810932], [-63.728568, -42.811028], [-63.727426, -42.811123], [-63.726522, -42.810885], [-63.725618, -42.810361], [-63.725142, -42.809695], [-63.724238, -42.808696], [-63.723619, -42.808125], [-63.722715, -42.807458], [-63.721525, -42.806649], [-63.720669, -42.80565], [-63.718717, -42.80427], [-63.716243, -42.803366], [-63.714292, -42.803128], [-63.71315, -42.803461], [-63.711722, -42.804032], [-63.709723, -42.803842], [-63.70801, -42.802699], [-63.70663, -42.801795], [-63.705155, -42.800891], [-63.704536, -42.799701], [-63.703965, -42.798797], [-63.702537, -42.797607], [-63.700491, -42.796418], [-63.698397, -42.795704], [-63.696636, -42.795323], [-63.695066, -42.795085], [-63.693495, -42.794895], [-63.69221, -42.794657], [-63.691116, -42.794133], [-63.688308, -42.793039], [-63.685833, -42.792563], [-63.682121, -42.792325], [-63.680847, -42.792272], [-63.679647, -42.792575], [-63.678755, -42.792754], [-63.677922, -42.792337], [-63.677327, -42.79204], [-63.677743, -42.791385], [-63.677951, -42.790648], [-63.678029, -42.790374], [-63.677967, -42.789902], [-63.677886, -42.789279], [-63.677362, -42.788565], [-63.676363, -42.788185], [-63.67584, -42.787852], [-63.675554, -42.787233], [-63.674459, -42.786614], [-63.673793, -42.786329], [-63.672937, -42.78571], [-63.672413, -42.785472], [-63.671176, -42.784758], [-63.669748, -42.784282], [-63.667654, -42.783997], [-63.666322, -42.783473], [-63.666267, -42.783419], [-63.665655, -42.782807], [-63.665227, -42.781427], [-63.664513, -42.78019], [-63.66399, -42.779143], [-63.663419, -42.778619], [-63.663225, -42.778453], [-63.662419, -42.777763], [-63.661277, -42.777334], [-63.660325, -42.77743], [-63.658707, -42.777667], [-63.656756, -42.778334], [-63.654948, -42.778572], [-63.653377, -42.778096], [-63.653044, -42.777239], [-63.652711, -42.775812], [-63.651379, -42.774384], [-63.650427, -42.772956], [-63.649285, -42.772242], [-63.648095, -42.771148], [-63.645954, -42.769958], [-63.643622, -42.769577], [-63.642242, -42.769387], [-63.641099, -42.768673], [-63.640528, -42.768911], [-63.639957, -42.768768], [-63.639434, -42.769387], [-63.638863, -42.769482], [-63.638149, -42.769054], [-63.637483, -42.768959], [-63.637007, -42.769101], [-63.636674, -42.769101], [-63.636674, -42.76853], [-63.636626, -42.768102], [-63.635532, -42.767198], [-63.635198, -42.767388], [-63.634865, -42.76715], [-63.634627, -42.766627], [-63.633913, -42.766056], [-63.633771, -42.766151], [-63.633295, -42.766008], [-63.632962, -42.76558], [-63.632486, -42.765199], [-63.631724, -42.765199], [-63.630725, -42.765247], [-63.630249, -42.764961], [-63.629964, -42.764628], [-63.630487, -42.764152], [-63.631867, -42.763629], [-63.632724, -42.763533], [-63.632962, -42.762534], [-63.632771, -42.761582], [-63.632391, -42.760678], [-63.631439, -42.759869], [-63.630963, -42.759488], [-63.63063, -42.759155], [-63.63063, -42.758489], [-63.630344, -42.75787], [-63.629773, -42.757394], [-63.630106, -42.756966], [-63.630344, -42.755729], [-63.630505, -42.754927], [-63.630582, -42.754539], [-63.631011, -42.753778], [-63.631867, -42.753064], [-63.632248, -42.752398], [-63.632724, -42.752017], [-63.6332, -42.751493], [-63.633057, -42.751065], [-63.633676, -42.750922], [-63.634437, -42.750589], [-63.634723, -42.749828], [-63.63477, -42.748876], [-63.634913, -42.747877], [-63.635103, -42.746925], [-63.635246, -42.74564], [-63.635103, -42.744355], [-63.635103, -42.742642], [-63.634723, -42.741642], [-63.634379, -42.741093], [-63.634247, -42.740881], [-63.633662, -42.740676], [-63.633295, -42.740548], [-63.632058, -42.7405], [-63.631106, -42.740262], [-63.630297, -42.739882], [-63.630297, -42.739501], [-63.631439, -42.739453], [-63.632676, -42.739739], [-63.633075, -42.739718], [-63.63358, -42.739691], [-63.634104, -42.739215], [-63.634138, -42.73874], [-63.634151, -42.738549], [-63.633866, -42.738168], [-63.634104, -42.737693], [-63.634532, -42.737312], [-63.635341, -42.736884], [-63.636197, -42.736929], [-63.636245, -42.736931], [-63.636864, -42.736598], [-63.636974, -42.736378], [-63.637483, -42.735361], [-63.637625, -42.734171], [-63.63715, -42.73379], [-63.637245, -42.732838], [-63.636864, -42.732505], [-63.636674, -42.731982], [-63.637625, -42.73122], [-63.638054, -42.730221], [-63.638101, -42.728032], [-63.638101, -42.726699], [-63.638006, -42.725748], [-63.637863, -42.724415], [-63.637911, -42.723701], [-63.637625, -42.722845], [-63.637197, -42.722036], [-63.637197, -42.720941], [-63.636912, -42.720275], [-63.636436, -42.719989], [-63.63615, -42.719799], [-63.636626, -42.719133], [-63.636816, -42.718942], [-63.637197, -42.718704], [-63.637578, -42.718181], [-63.637435, -42.717943], [-63.638244, -42.717562], [-63.640576, -42.716135], [-63.641052, -42.715611], [-63.641195, -42.71504], [-63.640814, -42.714659], [-63.640766, -42.714326], [-63.641004, -42.713327], [-63.640576, -42.713184], [-63.640719, -42.712565], [-63.641337, -42.711994], [-63.641575, -42.710614], [-63.641433, -42.709329], [-63.641052, -42.707664], [-63.640528, -42.706188], [-63.640052, -42.704856], [-63.639386, -42.703714], [-63.638768, -42.703381], [-63.638958, -42.70319], [-63.639672, -42.702857], [-63.6401, -42.702524], [-63.640005, -42.701001], [-63.639815, -42.699764], [-63.638768, -42.697432], [-63.637959, -42.69629], [-63.636959, -42.695005], [-63.635389, -42.69353], [-63.633009, -42.691245], [-63.631915, -42.689627], [-63.630963, -42.688247], [-63.630106, -42.686058], [-63.629202, -42.684678], [-63.62825, -42.683346], [-63.627584, -42.681775], [-63.626728, -42.679967], [-63.625823, -42.678396], [-63.624348, -42.677492], [-63.623158, -42.676826], [-63.622254, -42.676064], [-63.621826, -42.67516], [-63.622064, -42.673875], [-63.621731, -42.672448], [-63.621207, -42.670735], [-63.620398, -42.668355], [-63.619589, -42.666927], [-63.618875, -42.66588], [-63.618161, -42.664643], [-63.618019, -42.663501], [-63.618447, -42.662977], [-63.619161, -42.662406], [-63.619589, -42.661597], [-63.619494, -42.660027], [-63.619161, -42.658647], [-63.618066, -42.656648], [-63.616972, -42.654697], [-63.61621, -42.65384], [-63.614307, -42.651508], [-63.61326, -42.650176], [-63.612498, -42.649272], [-63.610928, -42.646559], [-63.609453, -42.643513], [-63.608453, -42.641277], [-63.607977, -42.638326], [-63.607501, -42.636661], [-63.606978, -42.634947], [-63.606597, -42.632663], [-63.606264, -42.631283], [-63.60517, -42.629284], [-63.603885, -42.627523], [-63.601743, -42.625477], [-63.600553, -42.624478], [-63.6, -42.624092], [-63.6, -42.989596], [-63.607459, -42.991943], [-63.620036, -42.99524], [-63.633511, -42.997878], [-63.636655, -42.999197], [-63.638451, -42.999856], [-63.651028, -43.003153], [-63.664502, -43.00579], [-63.677977, -43.008427], [-63.691452, -43.010405], [-63.693615, -43.010733], [-63.697351, -43.011301], [-63.704478, -43.012383], [-63.706367, -43.012475], [-63.717952, -43.013042], [-63.731427, -43.013701], [-63.756131, -43.013701], [-63.769605, -43.015679], [-63.774097, -43.016338], [-63.774995, -43.016338], [-63.78847, -43.018645], [-63.801945, -43.020622], [-63.81497, -43.0226], [-63.828445, -43.023259], [-63.832937, -43.023259], [-63.835632, -43.023918], [-63.849106, -43.025895], [-63.862581, -43.026554], [-63.875607, -43.027213], [-63.881895, -43.027213], [-63.886386, -43.028531], [-63.899861, -43.031167], [-63.913336, -43.033803], [-63.926361, -43.03578], [-63.933548, -43.036439], [-63.936243, -43.037098], [-63.939836, -43.037757], [-63.944328, -43.039075], [-63.948819, -43.039734], [-63.950616, -43.040393], [-63.952413, -43.041711], [-63.963192, -43.046982], [-63.973972, -43.052911], [-63.984303, -43.059169], [-63.985004, -43.059512], [-63.995083, -43.064439], [-64.000472, -43.067073], [-64.010354, -43.072342], [-64.021134, -43.078928], [-64.031913, -43.084195], [-64.036405, -43.086171], [-64.038202, -43.087487], [-64.048532, -43.093413], [-64.059312, -43.099996], [-64.070092, -43.104933], [-64.071888, -43.105591], [-64.072787, -43.106249], [-64.075482, -43.108224], [-64.086262, -43.114147], [-64.097041, -43.120728], [-64.107372, -43.125992], [-64.11366, -43.128624], [-64.114558, -43.129282], [-64.116355, -43.130598], [-64.11905, -43.132572], [-64.121745, -43.134545], [-64.126237, -43.138493], [-64.136118, -43.1454], [-64.145999, -43.151977], [-64.156779, -43.158554], [-64.16711, -43.16513], [-64.178788, -43.17039], [-64.190466, -43.17565], [-64.202144, -43.18091], [-64.214721, -43.184854], [-64.219661, -43.186826], [-64.221458, -43.187154], [-64.229543, -43.192413], [-64.241221, -43.197671], [-64.245712, -43.199642], [-64.252899, -43.2049], [-64.254696, -43.206214], [-64.264577, -43.213442], [-64.274459, -43.220012], [-64.284789, -43.226581], [-64.295569, -43.232822], [-64.307247, -43.238076], [-64.318925, -43.24333], [-64.330603, -43.248583], [-64.342731, -43.252523], [-64.355307, -43.257119], [-64.368782, -43.260402], [-64.381358, -43.263028], [-64.388545, -43.264341], [-64.39124, -43.264998], [-64.40696, -43.270249], [-64.410553, -43.27189], [-64.413248, -43.272547], [-64.425825, -43.276485], [-64.438401, -43.281079], [-64.451427, -43.284361], [-64.464003, -43.286986], [-64.47119, -43.288298], [-64.481071, -43.292236], [-64.494546, -43.295517], [-64.507122, -43.298141], [-64.512063, -43.300109], [-64.525538, -43.30339], [-64.531826, -43.304702], [-64.545301, -43.307982], [-64.553385, -43.30995], [-64.55608, -43.310606], [-64.569106, -43.313886], [-64.578987, -43.315526], [-64.580784, -43.316182], [-64.593361, -43.320773], [-64.596954, -43.322085], [-64.59875, -43.322741], [-64.611327, -43.326676], [-64.623454, -43.331266], [-64.627047, -43.331922], [-64.629742, -43.333233], [-64.642319, -43.337168], [-64.654895, -43.341758], [-64.656692, -43.342413], [-64.661183, -43.345036], [-64.672861, -43.35028], [-64.684989, -43.355525], [-64.691277, -43.357163], [-64.702955, -43.362407], [-64.710141, -43.365684], [-64.711938, -43.366339], [-64.717328, -43.368961], [-64.729006, -43.374203], [-64.741133, -43.379446], [-64.743828, -43.380756], [-64.754608, -43.386653], [-64.758201, -43.388618], [-64.768981, -43.393859], [-64.768981, -43.398445], [-64.770778, -43.407942], [-64.772574, -43.41842], [-64.776168, -43.428241], [-64.777964, -43.434133], [-64.780659, -43.438716], [-64.784252, -43.448206], [-64.787846, -43.458023], [-64.792337, -43.467838], [-64.796829, -43.476997], [-64.80177, -43.485828], [-64.808058, -43.494984], [-64.815244, -43.503485], [-64.822431, -43.512639], [-64.830516, -43.520484], [-64.839499, -43.528001], [-64.848482, -43.535844], [-64.85477, -43.540419], [-64.868694, -43.55218], [-64.875881, -43.55806], [-64.885762, -43.565246], [-64.89205, -43.569492], [-64.894745, -43.571451], [-64.898339, -43.574064], [-64.90822, -43.581247], [-64.915856, -43.586472], [-64.916754, -43.587125], [-64.922144, -43.594307], [-64.923042, -43.595613], [-64.924839, -43.598224], [-64.928432, -43.604752], [-64.93472, -43.612911], [-64.939212, -43.619438], [-64.942805, -43.625311], [-64.949093, -43.633794], [-64.95628, -43.642928], [-64.963466, -43.651408], [-64.971551, -43.659561], [-64.980085, -43.667386], [-64.989068, -43.675211], [-64.996255, -43.680427], [-64.996255, -43.683687], [-64.997153, -43.693465], [-64.99895, -43.703567], [-64.999848, -43.708129], [-64.999848, -43.71269], [-65.000746, -43.722463], [-65.000746, -43.723766], [-65.001645, -43.73484], [-65.002543, -43.740377], [-65.00434, -43.750796], [-65.006136, -43.760563], [-65.00973, -43.770329], [-65.013323, -43.779767], [-65.017814, -43.789529], [-65.022306, -43.79929], [-65.024103, -43.803194], [-65.026798, -43.809049], [-65.03084, -43.818806], [-65.032637, -43.821733], [-65.033535, -43.823684], [-65.034433, -43.825635], [-65.035332, -43.826936], [-65.037128, -43.828887], [-65.03623, -43.829537], [-65.035332, -43.830838], [-65.026798, -43.836691], [-65.016916, -43.843843], [-65.007933, -43.851644], [-64.999848, -43.860095], [-64.991763, -43.868219], [-64.984577, -43.876667], [-64.978289, -43.885763], [-64.972, -43.894859], [-64.969755, -43.900055], [-64.96706, -43.904602], [-64.964365, -43.908174], [-64.96167, -43.912071], [-64.959873, -43.914668], [-64.958975, -43.915967], [-64.955382, -43.921162], [-64.949093, -43.930251], [-64.942805, -43.93934], [-64.937415, -43.948102], [-64.930229, -43.957188], [-64.925737, -43.965623], [-64.921246, -43.975355], [-64.919845, -43.979146], [-64.917652, -43.985085], [-64.914059, -43.994489], [-64.913161, -43.998704], [-64.912712, -43.999677], [-64.911813, -44.005512], [-64.909567, -44.015561], [-64.908669, -44.024961], [-64.907771, -44.035006], [-64.907771, -44.045699], [-64.908669, -44.055741], [-64.910466, -44.065134], [-64.912712, -44.075173], [-64.915407, -44.08521], [-64.919449, -44.095245], [-64.923491, -44.104632], [-64.928432, -44.114017], [-64.933373, -44.12243], [-64.936517, -44.127606], [-64.936517, -44.134723], [-64.937415, -44.14475], [-64.939661, -44.154129], [-64.941458, -44.164153], [-64.944602, -44.174175], [-64.944602, -44.182902], [-64.9455, -44.190013], [-64.946398, -44.199384], [-64.947297, -44.2094], [-64.948644, -44.211985], [-64.949543, -44.214892], [-64.949543, -44.215861], [-64.950441, -44.225874], [-64.951339, -44.230719], [-64.951339, -44.232979], [-64.940559, -44.237823], [-64.92978, -44.244281], [-64.918551, -44.250738], [-64.907771, -44.257195], [-64.897889, -44.264296], [-64.888906, -44.271396], [-64.879923, -44.279464], [-64.87094, -44.287208], [-64.863753, -44.295919], [-64.856118, -44.304305], [-64.84983, -44.313013], [-64.84399, -44.322365], [-64.838151, -44.331715], [-64.834109, -44.340741], [-64.830067, -44.350733], [-64.826024, -44.360723], [-64.824228, -44.370067], [-64.821982, -44.380054], [-64.821083, -44.390039], [-64.820185, -44.400022], [-64.820185, -44.41097], [-64.821083, -44.42095], [-64.82288, -44.430928], [-64.825126, -44.439939], [-64.827821, -44.449913], [-64.831863, -44.460208], [-64.835906, -44.469214], [-64.840846, -44.478541], [-64.847135, -44.487866], [-64.852974, -44.497189], [-64.859711, -44.505547], [-64.866898, -44.514225], [-64.875881, -44.521938], [-64.883966, -44.529971], [-64.892949, -44.537681], [-64.90283, -44.544748], [-64.91361, -44.551815], [-64.923491, -44.558238], [-64.93472, -44.56466], [-64.946398, -44.57044], [-64.958526, -44.575576], [-64.970204, -44.580392], [-64.983229, -44.584565], [-64.996255, -44.588096], [-65.00928, -44.591947], [-65.01512, -44.597403], [-65.017618, -44.6], [-65.36836, -44.6], [-65.361182, -44.584273]]]}}]}